{
"type": "FeatureCollection",
"name": "stations_selected_jan_6",
"crs": { "type": "name", "properties": { "name": "urn:ogc:def:crs:OGC:1.3:CRS84" } },
"features": [
{ "type": "Feature", "properties": { "station_id": "1", "name": "001 - CL 82 con KR 11", "physical_configuration": "REGULAR", "lat": 4.6658027, "lon": -74.0528436, "altitude": null, "address": "Calle 82 entre Carrera 11 y Carrera 12", "cross_street": "EL RETIRO", "post_code": "1111", "capacity": 19, "is_charging_station": false, "geofenced_capacity": 0, "is_virtual_station": false, "nearby_distance": 1000.0, "_bluetooth_id": "f051", "_ride_code_support": true, "rental_uris": { }, "obcn": null, "short_name": null }, "geometry": { "type": "Point", "coordinates": [ -74.0528436, 4.6658027 ] } },
{ "type": "Feature", "properties": { "station_id": "3", "name": "003 - KR 15 con CL 93", "physical_configuration": "REGULAR", "lat": 4.677735, "lon": -74.05153, "altitude": null, "address": "Carrera 15 entre Calle 93 y Calle 93A", "cross_street": "CHICO NORTE", "post_code": "1111", "capacity": 10, "is_charging_station": false, "geofenced_capacity": 0, "is_virtual_station": false, "nearby_distance": 1000.0, "_bluetooth_id": "a946", "_ride_code_support": true, "rental_uris": { }, "obcn": "", "short_name": "" }, "geometry": { "type": "Point", "coordinates": [ -74.05153, 4.677735 ] } },
{ "type": "Feature", "properties": { "station_id": "4", "name": "004 - Parque de Japón", "physical_configuration": "REGULAR", "lat": 4.669821, "lon": -74.050483, "altitude": null, "address": "Calle 86a entre Carrera 11 y Carrera 11a", "cross_street": "LA CABRERA", "post_code": "1111", "capacity": 11, "is_charging_station": false, "geofenced_capacity": 0, "is_virtual_station": false, "nearby_distance": 1000.0, "_bluetooth_id": "fcb9", "_ride_code_support": true, "rental_uris": { }, "obcn": "", "short_name": "" }, "geometry": { "type": "Point", "coordinates": [ -74.050483, 4.669821 ] } },
{ "type": "Feature", "properties": { "station_id": "5", "name": "005 - CL 85 con KR 15", "physical_configuration": "REGULAR", "lat": 4.670073, "lon": -74.055579, "altitude": null, "address": "Av. Calle 85 entre Carrera 15 y Carrera 16", "cross_street": "ANTIGUO COUNTRY", "post_code": "1111", "capacity": 39, "is_charging_station": false, "geofenced_capacity": 0, "is_virtual_station": false, "nearby_distance": 1000.0, "_bluetooth_id": "ad63", "_ride_code_support": true, "rental_uris": { }, "obcn": "", "short_name": "" }, "geometry": { "type": "Point", "coordinates": [ -74.055579, 4.670073 ] } },
{ "type": "Feature", "properties": { "station_id": "6", "name": "006 - CL 119 con KR 13", "physical_configuration": "REGULAR", "lat": 4.698706180415817, "lon": -74.0400604, "altitude": null, "address": "Calle 119 entre Carrera 13 y Carrera 14", "cross_street": "SANTA BARBARA CENTRAL", "post_code": "1111", "capacity": 11, "is_charging_station": false, "geofenced_capacity": 0, "is_virtual_station": false, "nearby_distance": 1000.0, "_bluetooth_id": "7b86", "_ride_code_support": true, "rental_uris": { }, "obcn": "", "short_name": "" }, "geometry": { "type": "Point", "coordinates": [ -74.0400604, 4.698706180415817 ] } },
{ "type": "Feature", "properties": { "station_id": "7", "name": "007 - KR 19 con CL 85", "physical_configuration": "REGULAR", "lat": 4.67048, "lon": -74.0578287, "altitude": null, "address": "Av. Carrera 19 entre Calle 84 y Calle 85", "cross_street": "ANTIGUO COUNTRY", "post_code": "1111", "capacity": 7, "is_charging_station": false, "geofenced_capacity": 0, "is_virtual_station": false, "nearby_distance": 1000.0, "_bluetooth_id": "979c", "_ride_code_support": true, "rental_uris": { }, "obcn": "", "short_name": "" }, "geometry": { "type": "Point", "coordinates": [ -74.0578287, 4.67048 ] } },
{ "type": "Feature", "properties": { "station_id": "8", "name": "008 - Parque El Virrey", "physical_configuration": "REGULAR", "lat": 4.672635, "lon": -74.054406, "altitude": null, "address": "Calle 87 entre carrera 15 y carrera 16 ", "cross_street": "ANTIGUO COUNTRY", "post_code": "1111", "capacity": 11, "is_charging_station": false, "geofenced_capacity": 0, "is_virtual_station": false, "nearby_distance": 1000.0, "_bluetooth_id": "b2c3", "_ride_code_support": true, "rental_uris": { }, "obcn": "", "short_name": "" }, "geometry": { "type": "Point", "coordinates": [ -74.054406, 4.672635 ] } },
{ "type": "Feature", "properties": { "station_id": "9", "name": "009 - CL 90 con KR 13", "physical_configuration": "ELECTRICBIKESTATION", "lat": 4.673189, "lon": -74.05081, "altitude": null, "address": "Calle 90 entre Carrera 13 y Carrera 12", "cross_street": "EL CHICO", "post_code": "1111", "capacity": 19, "is_charging_station": true, "geofenced_capacity": 0, "is_virtual_station": false, "nearby_distance": 1000.0, "_bluetooth_id": "b55f", "_ride_code_support": true, "rental_uris": { }, "obcn": "", "short_name": "" }, "geometry": { "type": "Point", "coordinates": [ -74.05081, 4.673189 ] } },
{ "type": "Feature", "properties": { "station_id": "10", "name": "010 - CL 86A con KR 20", "physical_configuration": "REGULAR", "lat": 4.67444, "lon": -74.06011, "altitude": null, "address": "Calle 86a entre Carrera 20 y Carrera 21", "cross_street": "POLO CLUB", "post_code": "1111", "capacity": 11, "is_charging_station": false, "geofenced_capacity": 0, "is_virtual_station": false, "nearby_distance": 1000.0, "_bluetooth_id": "0b3e", "_ride_code_support": true, "rental_uris": { }, "obcn": "", "short_name": "" }, "geometry": { "type": "Point", "coordinates": [ -74.06011, 4.67444 ] } },
{ "type": "Feature", "properties": { "station_id": "11", "name": "011 - KR 14 con CL 85", "physical_configuration": "ELECTRICBIKESTATION", "lat": 4.670068, "lon": -74.054133, "altitude": null, "address": "Carrera 14 entre Calle 85 y Calle 86A", "cross_street": "LA CABRERA", "post_code": "1111", "capacity": 19, "is_charging_station": true, "geofenced_capacity": 0, "is_virtual_station": false, "nearby_distance": 1000.0, "_bluetooth_id": "6ad3", "_ride_code_support": true, "rental_uris": { }, "obcn": "", "short_name": "" }, "geometry": { "type": "Point", "coordinates": [ -74.054133, 4.670068 ] } },
{ "type": "Feature", "properties": { "station_id": "12", "name": "012 - KR 19C con CL 86A", "physical_configuration": "REGULAR", "lat": 4.6740827, "lon": -74.0578152, "altitude": null, "address": "Carrera 19c entre Calle 86a y Calle 87", "cross_street": "ANTIGUO COUNTRY", "post_code": "1111", "capacity": 11, "is_charging_station": false, "geofenced_capacity": 0, "is_virtual_station": false, "nearby_distance": 1000.0, "_bluetooth_id": "0f28", "_ride_code_support": true, "rental_uris": { }, "obcn": "", "short_name": "" }, "geometry": { "type": "Point", "coordinates": [ -74.0578152, 4.6740827 ] } },
{ "type": "Feature", "properties": { "station_id": "13", "name": "013 - KR 20 con CL 90", "physical_configuration": "ELECTRICBIKESTATION", "lat": 4.67686, "lon": -74.058346, "altitude": null, "address": "Carrera 20 entre Calle 90 y Calle 88", "cross_street": "EL CHICO", "post_code": "1111", "capacity": 15, "is_charging_station": true, "geofenced_capacity": 0, "is_virtual_station": false, "nearby_distance": 1000.0, "_bluetooth_id": "aeee", "_ride_code_support": true, "rental_uris": { }, "obcn": "", "short_name": "" }, "geometry": { "type": "Point", "coordinates": [ -74.058346, 4.67686 ] } },
{ "type": "Feature", "properties": { "station_id": "14", "name": "014 - DG 40A con KR 7", "physical_configuration": "REGULAR", "lat": 4.626199, "lon": -74.06602, "altitude": null, "address": "Diagonal 40A entre Carrera 7 y Carrera 8", "cross_street": "SUCRE", "post_code": "1111", "capacity": 11, "is_charging_station": false, "geofenced_capacity": 0, "is_virtual_station": false, "nearby_distance": 1000.0, "_bluetooth_id": "f602", "_ride_code_support": true, "rental_uris": { }, "obcn": "", "short_name": "" }, "geometry": { "type": "Point", "coordinates": [ -74.06602, 4.626199 ] } },
{ "type": "Feature", "properties": { "station_id": "15", "name": "015 - CL 99 con KR 10", "physical_configuration": "REGULAR", "lat": 4.681245, "lon": -74.0429, "altitude": null, "address": "Calle 99 entre Carrera 10 y Carrera 9B", "cross_street": "CHICO NORTE II SECTOR", "post_code": "1111", "capacity": 11, "is_charging_station": false, "geofenced_capacity": 0, "is_virtual_station": false, "nearby_distance": 1000.0, "_bluetooth_id": "2402", "_ride_code_support": true, "rental_uris": { }, "obcn": "", "short_name": "" }, "geometry": { "type": "Point", "coordinates": [ -74.0429, 4.681245 ] } },
{ "type": "Feature", "properties": { "station_id": "16", "name": "016 - CL 91 con KR 15", "physical_configuration": "REGULAR", "lat": 4.6756065, "lon": -74.053266, "altitude": null, "address": "Calle 91 entre Carrera 15 y Carrera 16", "cross_street": "EL CHICO", "post_code": "1111", "capacity": 10, "is_charging_station": false, "geofenced_capacity": 0, "is_virtual_station": false, "nearby_distance": 1000.0, "_bluetooth_id": "6036", "_ride_code_support": true, "rental_uris": { }, "obcn": "", "short_name": "" }, "geometry": { "type": "Point", "coordinates": [ -74.053266, 4.6756065 ] } },
{ "type": "Feature", "properties": { "station_id": "17", "name": "017 - CL 93 con KR 11", "physical_configuration": "REGULAR", "lat": 4.67433377, "lon": -74.0477812, "altitude": null, "address": "Calle 93 entre Carrera 11 y Carrera 12", "cross_street": "CHICO NORTE", "post_code": "1111", "capacity": 11, "is_charging_station": false, "geofenced_capacity": 0, "is_virtual_station": false, "nearby_distance": 1000.0, "_bluetooth_id": "759e", "_ride_code_support": true, "rental_uris": { }, "obcn": "", "short_name": "" }, "geometry": { "type": "Point", "coordinates": [ -74.0477812, 4.67433377 ] } },
{ "type": "Feature", "properties": { "station_id": "18", "name": "018 - KR 50 con CL 90", "physical_configuration": "REGULAR", "lat": 4.6794728, "lon": -74.0650061, "altitude": null, "address": "Carrera 50 entre Calle 90 y Calle 91", "cross_street": "LA CASTELLANA", "post_code": "1111", "capacity": 15, "is_charging_station": false, "geofenced_capacity": 0, "is_virtual_station": false, "nearby_distance": 1000.0, "_bluetooth_id": "bd2f", "_ride_code_support": true, "rental_uris": { }, "obcn": "", "short_name": "" }, "geometry": { "type": "Point", "coordinates": [ -74.0650061, 4.6794728 ] } },
{ "type": "Feature", "properties": { "station_id": "19", "name": "019 - AK 30 con CL 39Bis B", "physical_configuration": "REGULAR", "lat": 4.6282058, "lon": -74.0801588, "altitude": null, "address": "Av Carrera 30 entre Calle 39 Bis B y Calle 39 Bis A", "cross_street": "CHICO NORTE", "post_code": "1111", "capacity": 19, "is_charging_station": false, "geofenced_capacity": 0, "is_virtual_station": false, "nearby_distance": 1000.0, "_bluetooth_id": "76b6", "_ride_code_support": true, "rental_uris": { }, "obcn": "", "short_name": "" }, "geometry": { "type": "Point", "coordinates": [ -74.0801588, 4.6282058 ] } }
]
}
