{
  "type": "FeatureCollection",
  "features": [
    {
      "type": "Feature",
      "geometry": {
        "type": "Point",
        "coordinates": [
          -79.06541442871094,
          43.852134704589844
        ]
      },
      "properties": {
        "vehicle_id": "6100",
        "bearing": 0.0,
        "speed": 0.0,
        "trip_id": "1287__201059_Timetable_-_2026-04",
        "route_id": "211",
        "timestamp": 1781872968
      }
    },
    {
      "type": "Feature",
      "geometry": {
        "type": "Point",
        "coordinates": [
          -79.08513641357422,
          43.83293151855469
        ]
      },
      "properties": {
        "vehicle_id": "6101",
        "bearing": 0.0,
        "speed": 0.0,
        "trip_id": "5600__201036_Timetable_-_2026-04",
        "route_id": "916",
        "timestamp": 1781872995
      }
    },
    {
      "type": "Feature",
      "geometry": {
        "type": "Point",
        "coordinates": [
          -78.88375091552734,
          43.86240005493164
        ]
      },
      "properties": {
        "vehicle_id": "6103",
        "bearing": 0.0,
        "speed": 0.0,
        "trip_id": "5__401029_Timetable_-_2026-04",
        "route_id": "403",
        "timestamp": 1781872992
      }
    },
    {
      "type": "Feature",
      "geometry": {
        "type": "Point",
        "coordinates": [
          -78.99296569824219,
          43.88763427734375
        ]
      },
      "properties": {
        "vehicle_id": "6104",
        "bearing": 0.0,
        "speed": 0.0,
        "trip_id": "1436__201087_Timetable_-_2026-04",
        "route_id": "920",
        "timestamp": 1781872923
      }
    },
    {
      "type": "Feature",
      "geometry": {
        "type": "Point",
        "coordinates": [
          -78.82859802246094,
          43.882999420166016
        ]
      },
      "properties": {
        "vehicle_id": "6109",
        "bearing": 0.0,
        "speed": 0.0,
        "trip_id": "1049__401075_Timetable_-_2026-04",
        "route_id": "421",
        "timestamp": 1781872943
      }
    },
    {
      "type": "Feature",
      "geometry": {
        "type": "Point",
        "coordinates": [
          -78.87750244140625,
          43.8873176574707
        ]
      },
      "properties": {
        "vehicle_id": "6113",
        "bearing": 0.0,
        "speed": 0.0,
        "trip_id": "78__401081_Timetable_-_2026-04",
        "route_id": "405",
        "timestamp": 1781872980
      }
    },
    {
      "type": "Feature",
      "geometry": {
        "type": "Point",
        "coordinates": [
          -78.6792984008789,
          43.91075134277344
        ]
      },
      "properties": {
        "vehicle_id": "6115",
        "bearing": 0.0,
        "speed": 0.0,
        "trip_id": "1695__401055_Timetable_-_2026-04",
        "route_id": "902",
        "timestamp": 1781872985
      }
    },
    {
      "type": "Feature",
      "geometry": {
        "type": "Point",
        "coordinates": [
          -78.8076171875,
          43.907135009765625
        ]
      },
      "properties": {
        "vehicle_id": "6118",
        "bearing": 0.0,
        "speed": 0.0,
        "trip_id": "1694__401062_Timetable_-_2026-04",
        "route_id": "902",
        "timestamp": 1781872989
      }
    },
    {
      "type": "Feature",
      "geometry": {
        "type": "Point",
        "coordinates": [
          -78.90143585205078,
          43.88511657714844
        ]
      },
      "properties": {
        "vehicle_id": "6119",
        "bearing": 0.0,
        "speed": 0.0,
        "trip_id": "297__401026_Timetable_-_2026-04",
        "route_id": "409",
        "timestamp": 1781872960
      }
    },
    {
      "type": "Feature",
      "geometry": {
        "type": "Point",
        "coordinates": [
          -79.12431335449219,
          43.838966369628906
        ]
      },
      "properties": {
        "vehicle_id": "6120",
        "bearing": 0.0,
        "speed": 0.0,
        "trip_id": "2302__201001_Timetable_-_2026-04",
        "route_id": "118",
        "timestamp": 1781872977
      }
    },
    {
      "type": "Feature",
      "geometry": {
        "type": "Point",
        "coordinates": [
          -79.02484893798828,
          43.84233474731445
        ]
      },
      "properties": {
        "vehicle_id": "6121",
        "bearing": 0.0,
        "speed": 0.0,
        "trip_id": "1300__201063_Timetable_-_2026-04",
        "route_id": "227",
        "timestamp": 1781872940
      }
    },
    {
      "type": "Feature",
      "geometry": {
        "type": "Point",
        "coordinates": [
          -79.0224838256836,
          43.83433151245117
        ]
      },
      "properties": {
        "vehicle_id": "6122",
        "bearing": 0.0,
        "speed": 0.0,
        "trip_id": "1312__201061_Timetable_-_2026-04",
        "route_id": "227",
        "timestamp": 1781872966
      }
    },
    {
      "type": "Feature",
      "geometry": {
        "type": "Point",
        "coordinates": [
          -79.08785247802734,
          43.87971496582031
        ]
      },
      "properties": {
        "vehicle_id": "6125",
        "bearing": 0.0,
        "speed": 0.0,
        "trip_id": "2286__201004_Timetable_-_2026-04",
        "route_id": "112",
        "timestamp": 1781872987
      }
    },
    {
      "type": "Feature",
      "geometry": {
        "type": "Point",
        "coordinates": [
          -78.92601776123047,
          43.892616271972656
        ]
      },
      "properties": {
        "vehicle_id": "6126",
        "bearing": 0.0,
        "speed": 0.0,
        "trip_id": "909__201031_Timetable_-_2026-04",
        "route_id": "319",
        "timestamp": 1781872958
      }
    },
    {
      "type": "Feature",
      "geometry": {
        "type": "Point",
        "coordinates": [
          -79.04093170166016,
          43.851348876953125
        ]
      },
      "properties": {
        "vehicle_id": "6127",
        "bearing": 0.0,
        "speed": 0.0,
        "trip_id": "1275__201056_Timetable_-_2026-04",
        "route_id": "211",
        "timestamp": 1781872974
      }
    },
    {
      "type": "Feature",
      "geometry": {
        "type": "Point",
        "coordinates": [
          -78.95054626464844,
          43.87788391113281
        ]
      },
      "properties": {
        "vehicle_id": "6128",
        "bearing": 0.0,
        "speed": 0.0,
        "trip_id": "1600__201016_Timetable_-_2026-04",
        "route_id": "900",
        "timestamp": 1781872946
      }
    },
    {
      "type": "Feature",
      "geometry": {
        "type": "Point",
        "coordinates": [
          -78.80401611328125,
          43.876651763916016
        ]
      },
      "properties": {
        "vehicle_id": "6130",
        "bearing": 0.0,
        "speed": 0.0,
        "trip_id": "2457__403009_Timetable_-_2026-04",
        "route_id": "801",
        "timestamp": 1781872985
      }
    },
    {
      "type": "Feature",
      "geometry": {
        "type": "Point",
        "coordinates": [
          -79.14295196533203,
          43.801082611083984
        ]
      },
      "properties": {
        "vehicle_id": "6134",
        "bearing": 0.0,
        "speed": 0.0,
        "trip_id": "2480__403011_Timetable_-_2026-04",
        "route_id": "921",
        "timestamp": 1781872947
      }
    },
    {
      "type": "Feature",
      "geometry": {
        "type": "Point",
        "coordinates": [
          -78.92733001708984,
          43.91963195800781
        ]
      },
      "properties": {
        "vehicle_id": "6136",
        "bearing": 0.0,
        "speed": 0.0,
        "trip_id": "1437__201086_Timetable_-_2026-04",
        "route_id": "920",
        "timestamp": 1781872948
      }
    },
    {
      "type": "Feature",
      "geometry": {
        "type": "Point",
        "coordinates": [
          -78.96585083007812,
          44.09446716308594
        ]
      },
      "properties": {
        "vehicle_id": "6137",
        "bearing": 0.0,
        "speed": 0.0,
        "trip_id": "5818__401045_Timetable_-_2026-04",
        "route_id": "618",
        "timestamp": 1781872969
      }
    },
    {
      "type": "Feature",
      "geometry": {
        "type": "Point",
        "coordinates": [
          -78.89556884765625,
          43.94321823120117
        ]
      },
      "properties": {
        "vehicle_id": "6138",
        "bearing": 0.0,
        "speed": 0.0,
        "trip_id": "2183__201046_Timetable_-_2026-04",
        "route_id": "302",
        "timestamp": 1781872986
      }
    },
    {
      "type": "Feature",
      "geometry": {
        "type": "Point",
        "coordinates": [
          -78.86133575439453,
          43.9557991027832
        ]
      },
      "properties": {
        "vehicle_id": "6139",
        "bearing": 0.0,
        "speed": 0.0,
        "trip_id": "76__401013_Timetable_-_2026-04",
        "route_id": "405",
        "timestamp": 1781872946
      }
    },
    {
      "type": "Feature",
      "geometry": {
        "type": "Point",
        "coordinates": [
          -79.0923843383789,
          43.83420181274414
        ]
      },
      "properties": {
        "vehicle_id": "6140",
        "bearing": 0.0,
        "speed": 0.0,
        "trip_id": "2208__201073_Timetable_-_2026-04",
        "route_id": "118",
        "timestamp": 1781872981
      }
    },
    {
      "type": "Feature",
      "geometry": {
        "type": "Point",
        "coordinates": [
          -79.0174331665039,
          43.867183685302734
        ]
      },
      "properties": {
        "vehicle_id": "6142",
        "bearing": 0.0,
        "speed": 0.0,
        "trip_id": "608__201006_Timetable_-_2026-04",
        "route_id": "224",
        "timestamp": 1781872979
      }
    },
    {
      "type": "Feature",
      "geometry": {
        "type": "Point",
        "coordinates": [
          -79.10044860839844,
          44.1037483215332
        ]
      },
      "properties": {
        "vehicle_id": "6143",
        "bearing": 0.0,
        "speed": 0.0,
        "trip_id": "1782__201045_Timetable_-_2026-04",
        "route_id": "905",
        "timestamp": 1781872985
      }
    },
    {
      "type": "Feature",
      "geometry": {
        "type": "Point",
        "coordinates": [
          -79.06288146972656,
          43.8220329284668
        ]
      },
      "properties": {
        "vehicle_id": "6144",
        "bearing": 0.0,
        "speed": 0.0,
        "trip_id": "735__201044_Timetable_-_2026-04",
        "route_id": "101",
        "timestamp": 1781872953
      }
    },
    {
      "type": "Feature",
      "geometry": {
        "type": "Point",
        "coordinates": [
          -78.95028686523438,
          43.897499084472656
        ]
      },
      "properties": {
        "vehicle_id": "6146",
        "bearing": 0.0,
        "speed": 0.0,
        "trip_id": "5644__201022_Timetable_-_2026-04",
        "route_id": "916",
        "timestamp": 1781872984
      }
    },
    {
      "type": "Feature",
      "geometry": {
        "type": "Point",
        "coordinates": [
          -78.86821746826172,
          43.932682037353516
        ]
      },
      "properties": {
        "vehicle_id": "6147",
        "bearing": 0.0,
        "speed": 0.0,
        "trip_id": "145__403002_Timetable_-_2026-04",
        "route_id": "407",
        "timestamp": 1781872964
      }
    },
    {
      "type": "Feature",
      "geometry": {
        "type": "Point",
        "coordinates": [
          -78.99765014648438,
          43.84865188598633
        ]
      },
      "properties": {
        "vehicle_id": "6148",
        "bearing": 0.0,
        "speed": 0.0,
        "trip_id": "1311__201070_Timetable_-_2026-04",
        "route_id": "227",
        "timestamp": 1781872983
      }
    },
    {
      "type": "Feature",
      "geometry": {
        "type": "Point",
        "coordinates": [
          -78.65326690673828,
          43.89780044555664
        ]
      },
      "properties": {
        "vehicle_id": "6149",
        "bearing": 0.0,
        "speed": 0.0,
        "trip_id": "2424__403003_Timetable_-_2026-04",
        "route_id": "505",
        "timestamp": 1781872967
      }
    },
    {
      "type": "Feature",
      "geometry": {
        "type": "Point",
        "coordinates": [
          -79.16041564941406,
          44.42974853515625
        ]
      },
      "properties": {
        "vehicle_id": "6150",
        "bearing": 0.0,
        "speed": 0.0,
        "trip_id": "5804__401035_Timetable_-_2026-04",
        "route_id": "618",
        "timestamp": 1781872970
      }
    },
    {
      "type": "Feature",
      "geometry": {
        "type": "Point",
        "coordinates": [
          -78.95831298828125,
          43.966915130615234
        ]
      },
      "properties": {
        "vehicle_id": "6151",
        "bearing": 0.0,
        "speed": 0.0,
        "trip_id": "2105__201066_Timetable_-_2026-04",
        "route_id": "302",
        "timestamp": 1781872955
      }
    },
    {
      "type": "Feature",
      "geometry": {
        "type": "Point",
        "coordinates": [
          -79.03848266601562,
          43.84693145751953
        ]
      },
      "properties": {
        "vehicle_id": "6152",
        "bearing": 0.0,
        "speed": 0.0,
        "trip_id": "612__201040_Timetable_-_2026-04",
        "route_id": "224",
        "timestamp": 1781872959
      }
    },
    {
      "type": "Feature",
      "geometry": {
        "type": "Point",
        "coordinates": [
          -79.0413818359375,
          43.847599029541016
        ]
      },
      "properties": {
        "vehicle_id": "6153",
        "bearing": 0.0,
        "speed": 0.0,
        "trip_id": "717__201048_Timetable_-_2026-04",
        "route_id": "224",
        "timestamp": 1781872963
      }
    },
    {
      "type": "Feature",
      "geometry": {
        "type": "Point",
        "coordinates": [
          -79.08221435546875,
          43.86778259277344
        ]
      },
      "properties": {
        "vehicle_id": "6154",
        "bearing": 0.0,
        "speed": 0.0,
        "trip_id": "5599__201072_Timetable_-_2026-04",
        "route_id": "916",
        "timestamp": 1781872994
      }
    },
    {
      "type": "Feature",
      "geometry": {
        "type": "Point",
        "coordinates": [
          -78.9664535522461,
          43.89374923706055
        ]
      },
      "properties": {
        "vehicle_id": "6157",
        "bearing": 0.0,
        "speed": 0.0,
        "trip_id": "1412__201089_Timetable_-_2026-04",
        "route_id": "920",
        "timestamp": 1781872982
      }
    },
    {
      "type": "Feature",
      "geometry": {
        "type": "Point",
        "coordinates": [
          -79.17113494873047,
          43.808250427246094
        ]
      },
      "properties": {
        "vehicle_id": "7100",
        "bearing": 0.0,
        "speed": 0.0,
        "trip_id": "1533__401021_Timetable_-_2026-04",
        "route_id": "921",
        "timestamp": 1781872898
      }
    },
    {
      "type": "Feature",
      "geometry": {
        "type": "Point",
        "coordinates": [
          -79.0414810180664,
          43.8474006652832
        ]
      },
      "properties": {
        "vehicle_id": "7101",
        "bearing": 0.0,
        "speed": 0.0,
        "trip_id": "1105__201065_Timetable_-_2026-04",
        "route_id": "216",
        "timestamp": 1781872950
      }
    },
    {
      "type": "Feature",
      "geometry": {
        "type": "Point",
        "coordinates": [
          -78.86863708496094,
          43.908748626708984
        ]
      },
      "properties": {
        "vehicle_id": "7102",
        "bearing": 0.0,
        "speed": 0.0,
        "trip_id": "5307__401041_Timetable_-_2026-04",
        "route_id": "901",
        "timestamp": 1781872996
      }
    },
    {
      "type": "Feature",
      "geometry": {
        "type": "Point",
        "coordinates": [
          -78.91808319091797,
          43.92359924316406
        ]
      },
      "properties": {
        "vehicle_id": "7104",
        "bearing": 0.0,
        "speed": 0.0,
        "trip_id": "1795__201067_Timetable_-_2026-04",
        "route_id": "905",
        "timestamp": 1781872941
      }
    },
    {
      "type": "Feature",
      "geometry": {
        "type": "Point",
        "coordinates": [
          -79.1070327758789,
          43.81290054321289
        ]
      },
      "properties": {
        "vehicle_id": "7105",
        "bearing": 0.0,
        "speed": 0.0,
        "trip_id": "795__201024_Timetable_-_2026-04",
        "route_id": "121",
        "timestamp": 1781872940
      }
    },
    {
      "type": "Feature",
      "geometry": {
        "type": "Point",
        "coordinates": [
          -78.8565673828125,
          43.875099182128906
        ]
      },
      "properties": {
        "vehicle_id": "7107",
        "bearing": 0.0,
        "speed": 0.0,
        "trip_id": "38__401007_Timetable_-_2026-04",
        "route_id": "403",
        "timestamp": 1781872969
      }
    },
    {
      "type": "Feature",
      "geometry": {
        "type": "Point",
        "coordinates": [
          -78.85676574707031,
          43.9561653137207
        ]
      },
      "properties": {
        "vehicle_id": "7108",
        "bearing": 0.0,
        "speed": 0.0,
        "trip_id": "5698__201075_Timetable_-_2026-04",
        "route_id": "915",
        "timestamp": 1781872995
      }
    },
    {
      "type": "Feature",
      "geometry": {
        "type": "Point",
        "coordinates": [
          -78.9674301147461,
          43.91288375854492
        ]
      },
      "properties": {
        "vehicle_id": "7109",
        "bearing": 0.0,
        "speed": 0.0,
        "trip_id": "1230__201033_Timetable_-_2026-04",
        "route_id": "301",
        "timestamp": 1781872994
      }
    },
    {
      "type": "Feature",
      "geometry": {
        "type": "Point",
        "coordinates": [
          -78.87785339355469,
          43.88064956665039
        ]
      },
      "properties": {
        "vehicle_id": "7111",
        "bearing": 0.0,
        "speed": 0.0,
        "trip_id": "704__401042_Timetable_-_2026-04",
        "route_id": "917",
        "timestamp": 1781872945
      }
    },
    {
      "type": "Feature",
      "geometry": {
        "type": "Point",
        "coordinates": [
          -78.83878326416016,
          43.86425018310547
        ]
      },
      "properties": {
        "vehicle_id": "7112",
        "bearing": 0.0,
        "speed": 0.0,
        "trip_id": "5275__401089_Timetable_-_2026-04",
        "route_id": "901",
        "timestamp": 1781872992
      }
    },
    {
      "type": "Feature",
      "geometry": {
        "type": "Point",
        "coordinates": [
          -78.84950256347656,
          43.89065170288086
        ]
      },
      "properties": {
        "vehicle_id": "7114",
        "bearing": 0.0,
        "speed": 0.0,
        "trip_id": "143__401083_Timetable_-_2026-04",
        "route_id": "407",
        "timestamp": 1781872941
      }
    },
    {
      "type": "Feature",
      "geometry": {
        "type": "Point",
        "coordinates": [
          -79.00718688964844,
          43.88446807861328
        ]
      },
      "properties": {
        "vehicle_id": "7115",
        "bearing": 0.0,
        "speed": 0.0,
        "trip_id": "5643__201027_Timetable_-_2026-04",
        "route_id": "916",
        "timestamp": 1781872869
      }
    },
    {
      "type": "Feature",
      "geometry": {
        "type": "Point",
        "coordinates": [
          -78.94141387939453,
          43.87776565551758
        ]
      },
      "properties": {
        "vehicle_id": "7116",
        "bearing": 0.0,
        "speed": 0.0,
        "trip_id": "2102__201013_Timetable_-_2026-04",
        "route_id": "302",
        "timestamp": 1781872981
      }
    },
    {
      "type": "Feature",
      "geometry": {
        "type": "Point",
        "coordinates": [
          -78.93778228759766,
          43.865116119384766
        ]
      },
      "properties": {
        "vehicle_id": "7118",
        "bearing": 0.0,
        "speed": 0.0,
        "trip_id": "1770__201041_Timetable_-_2026-04",
        "route_id": "905",
        "timestamp": 1781872958
      }
    },
    {
      "type": "Feature",
      "geometry": {
        "type": "Point",
        "coordinates": [
          -78.96015167236328,
          43.922183990478516
        ]
      },
      "properties": {
        "vehicle_id": "7119",
        "bearing": 0.0,
        "speed": 0.0,
        "trip_id": "2165__201034_Timetable_-_2026-04",
        "route_id": "302",
        "timestamp": 1781872970
      }
    },
    {
      "type": "Feature",
      "geometry": {
        "type": "Point",
        "coordinates": [
          -78.87265014648438,
          43.895484924316406
        ]
      },
      "properties": {
        "vehicle_id": "7120",
        "bearing": 0.0,
        "speed": 0.0,
        "trip_id": "504__201018_Timetable_-_2026-04",
        "route_id": "900",
        "timestamp": 1781872959
      }
    },
    {
      "type": "Feature",
      "geometry": {
        "type": "Point",
        "coordinates": [
          -78.8705825805664,
          43.915184020996094
        ]
      },
      "properties": {
        "vehicle_id": "7121",
        "bearing": 0.0,
        "speed": 0.0,
        "trip_id": "5597__201074_Timetable_-_2026-04",
        "route_id": "916",
        "timestamp": 1781872951
      }
    },
    {
      "type": "Feature",
      "geometry": {
        "type": "Point",
        "coordinates": [
          -78.94770050048828,
          43.869598388671875
        ]
      },
      "properties": {
        "vehicle_id": "7122",
        "bearing": 0.0,
        "speed": 0.0,
        "trip_id": "1323__201009_Timetable_-_2026-04",
        "route_id": "306",
        "timestamp": 1781872990
      }
    },
    {
      "type": "Feature",
      "geometry": {
        "type": "Point",
        "coordinates": [
          -78.81818389892578,
          43.916648864746094
        ]
      },
      "properties": {
        "vehicle_id": "7124",
        "bearing": 0.0,
        "speed": 0.0,
        "trip_id": "291__401047_Timetable_-_2026-04",
        "route_id": "423",
        "timestamp": 1781872964
      }
    },
    {
      "type": "Feature",
      "geometry": {
        "type": "Point",
        "coordinates": [
          -78.89531707763672,
          43.943668365478516
        ]
      },
      "properties": {
        "vehicle_id": "8470",
        "bearing": 0.0,
        "speed": 0.0,
        "trip_id": "148__401046_Timetable_-_2026-04",
        "route_id": "407",
        "timestamp": 1781872943
      }
    },
    {
      "type": "Feature",
      "geometry": {
        "type": "Point",
        "coordinates": [
          -78.93761444091797,
          43.86494827270508
        ]
      },
      "properties": {
        "vehicle_id": "8471",
        "bearing": 0.0,
        "speed": 0.0,
        "trip_id": "661__401004_Timetable_-_2026-04",
        "route_id": "917",
        "timestamp": 1781872980
      }
    },
    {
      "type": "Feature",
      "geometry": {
        "type": "Point",
        "coordinates": [
          -79.13524627685547,
          43.823299407958984
        ]
      },
      "properties": {
        "vehicle_id": "8472",
        "bearing": 0.0,
        "speed": 0.0,
        "trip_id": "827__201080_Timetable_-_2026-04",
        "route_id": "121",
        "timestamp": 1781872976
      }
    },
    {
      "type": "Feature",
      "geometry": {
        "type": "Point",
        "coordinates": [
          -78.90955352783203,
          43.87874984741211
        ]
      },
      "properties": {
        "vehicle_id": "8501",
        "bearing": 0.0,
        "speed": 0.0,
        "trip_id": "2331__201095_Timetable_-_2026-04",
        "route_id": "905",
        "timestamp": 1781872958
      }
    },
    {
      "type": "Feature",
      "geometry": {
        "type": "Point",
        "coordinates": [
          -79.09521484375,
          43.83803176879883
        ]
      },
      "properties": {
        "vehicle_id": "8503",
        "bearing": 0.0,
        "speed": 0.0,
        "trip_id": "796__201023_Timetable_-_2026-04",
        "route_id": "121",
        "timestamp": 1781872941
      }
    },
    {
      "type": "Feature",
      "geometry": {
        "type": "Point",
        "coordinates": [
          -79.09461975097656,
          43.845115661621094
        ]
      },
      "properties": {
        "vehicle_id": "8504",
        "bearing": 0.0,
        "speed": 0.0,
        "trip_id": "2274__201047_Timetable_-_2026-04",
        "route_id": "112",
        "timestamp": 1781872942
      }
    },
    {
      "type": "Feature",
      "geometry": {
        "type": "Point",
        "coordinates": [
          -79.04119873046875,
          43.846534729003906
        ]
      },
      "properties": {
        "vehicle_id": "8507",
        "bearing": 0.0,
        "speed": 0.0,
        "trip_id": "594__401033_Timetable_-_2026-04",
        "route_id": "917",
        "timestamp": 1781872938
      }
    },
    {
      "type": "Feature",
      "geometry": {
        "type": "Point",
        "coordinates": [
          -78.82806396484375,
          43.88291549682617
        ]
      },
      "properties": {
        "vehicle_id": "8508",
        "bearing": 0.0,
        "speed": 0.0,
        "trip_id": "146__401067_Timetable_-_2026-04",
        "route_id": "407",
        "timestamp": 1781872978
      }
    },
    {
      "type": "Feature",
      "geometry": {
        "type": "Point",
        "coordinates": [
          -78.95138549804688,
          43.877864837646484
        ]
      },
      "properties": {
        "vehicle_id": "8509",
        "bearing": 0.0,
        "speed": 0.0,
        "trip_id": "441__402006_Timetable_-_2026-04",
        "route_id": "900",
        "timestamp": 1781872944
      }
    },
    {
      "type": "Feature",
      "geometry": {
        "type": "Point",
        "coordinates": [
          -79.0283203125,
          43.882568359375
        ]
      },
      "properties": {
        "vehicle_id": "8513",
        "bearing": 0.0,
        "speed": 0.0,
        "trip_id": "1185__201064_Timetable_-_2026-04",
        "route_id": "216",
        "timestamp": 1781872940
      }
    },
    {
      "type": "Feature",
      "geometry": {
        "type": "Point",
        "coordinates": [
          -79.03778076171875,
          43.839683532714844
        ]
      },
      "properties": {
        "vehicle_id": "8514",
        "bearing": 0.0,
        "speed": 0.0,
        "trip_id": "637__201014_Timetable_-_2026-04",
        "route_id": "917",
        "timestamp": 1781872953
      }
    },
    {
      "type": "Feature",
      "geometry": {
        "type": "Point",
        "coordinates": [
          -78.93765258789062,
          43.86520004272461
        ]
      },
      "properties": {
        "vehicle_id": "8515",
        "bearing": 0.0,
        "speed": 0.0,
        "trip_id": "1245__201035_Timetable_-_2026-04",
        "route_id": "319",
        "timestamp": 1781872942
      }
    },
    {
      "type": "Feature",
      "geometry": {
        "type": "Point",
        "coordinates": [
          -79.06517028808594,
          44.10210037231445
        ]
      },
      "properties": {
        "vehicle_id": "8524",
        "bearing": 0.0,
        "speed": 0.0,
        "trip_id": "1769__201025_Timetable_-_2026-04",
        "route_id": "905",
        "timestamp": 1781872995
      }
    },
    {
      "type": "Feature",
      "geometry": {
        "type": "Point",
        "coordinates": [
          -78.90271759033203,
          43.92748260498047
        ]
      },
      "properties": {
        "vehicle_id": "8525",
        "bearing": 0.0,
        "speed": 0.0,
        "trip_id": "1748__201038_Timetable_-_2026-04",
        "route_id": "905",
        "timestamp": 1781872994
      }
    },
    {
      "type": "Feature",
      "geometry": {
        "type": "Point",
        "coordinates": [
          -78.98760223388672,
          43.90829849243164
        ]
      },
      "properties": {
        "vehicle_id": "8526",
        "bearing": 0.0,
        "speed": 0.0,
        "trip_id": "5696__201026_Timetable_-_2026-04",
        "route_id": "915",
        "timestamp": 1781872990
      }
    },
    {
      "type": "Feature",
      "geometry": {
        "type": "Point",
        "coordinates": [
          -79.009765625,
          43.883766174316406
        ]
      },
      "properties": {
        "vehicle_id": "8528",
        "bearing": 0.0,
        "speed": 0.0,
        "trip_id": "5598__201003_Timetable_-_2026-04",
        "route_id": "916",
        "timestamp": 1781872797
      }
    },
    {
      "type": "Feature",
      "geometry": {
        "type": "Point",
        "coordinates": [
          -79.09660339355469,
          43.831050872802734
        ]
      },
      "properties": {
        "vehicle_id": "8529",
        "bearing": 0.0,
        "speed": 0.0,
        "trip_id": "1532__401099_Timetable_-_2026-04",
        "route_id": "921",
        "timestamp": 1781872978
      }
    },
    {
      "type": "Feature",
      "geometry": {
        "type": "Point",
        "coordinates": [
          -79.08051300048828,
          43.837501525878906
        ]
      },
      "properties": {
        "vehicle_id": "8531",
        "bearing": 0.0,
        "speed": 0.0,
        "trip_id": "1435__201079_Timetable_-_2026-04",
        "route_id": "920",
        "timestamp": 1781872958
      }
    },
    {
      "type": "Feature",
      "geometry": {
        "type": "Point",
        "coordinates": [
          -79.11775207519531,
          43.8171501159668
        ]
      },
      "properties": {
        "vehicle_id": "8532",
        "bearing": 0.0,
        "speed": 0.0,
        "trip_id": "505__201017_Timetable_-_2026-04",
        "route_id": "900",
        "timestamp": 1781872976
      }
    },
    {
      "type": "Feature",
      "geometry": {
        "type": "Point",
        "coordinates": [
          -78.92483520507812,
          43.94181823730469
        ]
      },
      "properties": {
        "vehicle_id": "8534",
        "bearing": 0.0,
        "speed": 0.0,
        "trip_id": "1550__401079_Timetable_-_2026-04",
        "route_id": "921",
        "timestamp": 1781872938
      }
    },
    {
      "type": "Feature",
      "geometry": {
        "type": "Point",
        "coordinates": [
          -79.04329681396484,
          43.87685012817383
        ]
      },
      "properties": {
        "vehicle_id": "8536",
        "bearing": 0.0,
        "speed": 0.0,
        "trip_id": "5750__201029_Timetable_-_2026-04",
        "route_id": "915",
        "timestamp": 1781872954
      }
    },
    {
      "type": "Feature",
      "geometry": {
        "type": "Point",
        "coordinates": [
          -78.8518295288086,
          43.94526672363281
        ]
      },
      "properties": {
        "vehicle_id": "8539",
        "bearing": 0.0,
        "speed": 0.0,
        "trip_id": "881__401018_Timetable_-_2026-04",
        "route_id": "419",
        "timestamp": 1781872972
      }
    },
    {
      "type": "Feature",
      "geometry": {
        "type": "Point",
        "coordinates": [
          -79.02995300292969,
          43.89554977416992
        ]
      },
      "properties": {
        "vehicle_id": "8540",
        "bearing": 0.0,
        "speed": 0.0,
        "trip_id": "621__201028_Timetable_-_2026-04",
        "route_id": "224",
        "timestamp": 1781872960
      }
    },
    {
      "type": "Feature",
      "geometry": {
        "type": "Point",
        "coordinates": [
          -79.04098510742188,
          43.84751510620117
        ]
      },
      "properties": {
        "vehicle_id": "8541",
        "bearing": 0.0,
        "speed": 0.0,
        "trip_id": "5695__201077_Timetable_-_2026-04",
        "route_id": "915",
        "timestamp": 1781872974
      }
    },
    {
      "type": "Feature",
      "geometry": {
        "type": "Point",
        "coordinates": [
          -79.04850006103516,
          43.8560676574707
        ]
      },
      "properties": {
        "vehicle_id": "8542",
        "bearing": 0.0,
        "speed": 0.0,
        "trip_id": "1413__201088_Timetable_-_2026-04",
        "route_id": "920",
        "timestamp": 1781872996
      }
    },
    {
      "type": "Feature",
      "geometry": {
        "type": "Point",
        "coordinates": [
          -78.94091796875,
          43.91886520385742
        ]
      },
      "properties": {
        "vehicle_id": "8543",
        "bearing": 0.0,
        "speed": 0.0,
        "trip_id": "5749__201002_Timetable_-_2026-04",
        "route_id": "915",
        "timestamp": 1781872976
      }
    },
    {
      "type": "Feature",
      "geometry": {
        "type": "Point",
        "coordinates": [
          -78.9085464477539,
          43.94525146484375
        ]
      },
      "properties": {
        "vehicle_id": "8544",
        "bearing": 0.0,
        "speed": 0.0,
        "trip_id": "1411__201084_Timetable_-_2026-04",
        "route_id": "920",
        "timestamp": 1781872985
      }
    },
    {
      "type": "Feature",
      "geometry": {
        "type": "Point",
        "coordinates": [
          -79.02776336669922,
          43.88176727294922
        ]
      },
      "properties": {
        "vehicle_id": "8545",
        "bearing": 0.0,
        "speed": 0.0,
        "trip_id": "1136__201030_Timetable_-_2026-04",
        "route_id": "216",
        "timestamp": 1781872841
      }
    },
    {
      "type": "Feature",
      "geometry": {
        "type": "Point",
        "coordinates": [
          -78.88333129882812,
          43.93203353881836
        ]
      },
      "properties": {
        "vehicle_id": "8547",
        "bearing": 0.0,
        "speed": 0.0,
        "trip_id": "5697__201005_Timetable_-_2026-04",
        "route_id": "915",
        "timestamp": 1781872951
      }
    },
    {
      "type": "Feature",
      "geometry": {
        "type": "Point",
        "coordinates": [
          -78.87256622314453,
          43.953182220458984
        ]
      },
      "properties": {
        "vehicle_id": "8553",
        "bearing": 0.0,
        "speed": 0.0,
        "trip_id": "142__401010_Timetable_-_2026-04",
        "route_id": "407",
        "timestamp": 1781872966
      }
    },
    {
      "type": "Feature",
      "geometry": {
        "type": "Point",
        "coordinates": [
          -78.87696838378906,
          43.888816833496094
        ]
      },
      "properties": {
        "vehicle_id": "8555",
        "bearing": 0.0,
        "speed": 0.0,
        "trip_id": "5343__401097_Timetable_-_2026-04",
        "route_id": "901",
        "timestamp": 1781872987
      }
    },
    {
      "type": "Feature",
      "geometry": {
        "type": "Point",
        "coordinates": [
          -78.8031005859375,
          43.90755081176758
        ]
      },
      "properties": {
        "vehicle_id": "8559",
        "bearing": 0.0,
        "speed": 0.0,
        "trip_id": "1643__401051_Timetable_-_2026-04",
        "route_id": "902",
        "timestamp": 1781872987
      }
    },
    {
      "type": "Feature",
      "geometry": {
        "type": "Point",
        "coordinates": [
          -78.91407012939453,
          43.9144172668457
        ]
      },
      "properties": {
        "vehicle_id": "8562",
        "bearing": 0.0,
        "speed": 0.0,
        "trip_id": "321__401038_Timetable_-_2026-04",
        "route_id": "409",
        "timestamp": 1781872975
      }
    },
    {
      "type": "Feature",
      "geometry": {
        "type": "Point",
        "coordinates": [
          -78.88565063476562,
          43.87089920043945
        ]
      },
      "properties": {
        "vehicle_id": "8564",
        "bearing": 0.0,
        "speed": 0.0,
        "trip_id": "1645__401059_Timetable_-_2026-04",
        "route_id": "902",
        "timestamp": 1781872977
      }
    },
    {
      "type": "Feature",
      "geometry": {
        "type": "Point",
        "coordinates": [
          -78.8720703125,
          43.88778305053711
        ]
      },
      "properties": {
        "vehicle_id": "8567",
        "bearing": 0.0,
        "speed": 0.0,
        "trip_id": "208__401039_Timetable_-_2026-04",
        "route_id": "410",
        "timestamp": 1781872962
      }
    },
    {
      "type": "Feature",
      "geometry": {
        "type": "Point",
        "coordinates": [
          -79.25308227539062,
          43.775333404541016
        ]
      },
      "properties": {
        "vehicle_id": "8568",
        "bearing": 0.0,
        "speed": 0.0,
        "trip_id": "1535__401022_Timetable_-_2026-04",
        "route_id": "921",
        "timestamp": 1781872980
      }
    },
    {
      "type": "Feature",
      "geometry": {
        "type": "Point",
        "coordinates": [
          -78.87643432617188,
          43.88893508911133
        ]
      },
      "properties": {
        "vehicle_id": "8571",
        "bearing": 0.0,
        "speed": 0.0,
        "trip_id": "1693__401060_Timetable_-_2026-04",
        "route_id": "902",
        "timestamp": 1781872949
      }
    },
    {
      "type": "Feature",
      "geometry": {
        "type": "Point",
        "coordinates": [
          -78.84228515625,
          43.9739990234375
        ]
      },
      "properties": {
        "vehicle_id": "8572",
        "bearing": 0.0,
        "speed": 0.0,
        "trip_id": "2445__401084_Timetable_-_2026-04",
        "route_id": "505",
        "timestamp": 1781872991
      }
    },
    {
      "type": "Feature",
      "geometry": {
        "type": "Point",
        "coordinates": [
          -78.87674713134766,
          43.88895034790039
        ]
      },
      "properties": {
        "vehicle_id": "8573",
        "bearing": 0.0,
        "speed": 0.0,
        "trip_id": "1076__401082_Timetable_-_2026-04",
        "route_id": "421",
        "timestamp": 1781872990
      }
    },
    {
      "type": "Feature",
      "geometry": {
        "type": "Point",
        "coordinates": [
          -78.84854888916016,
          43.89120101928711
        ]
      },
      "properties": {
        "vehicle_id": "8575",
        "bearing": 0.0,
        "speed": 0.0,
        "trip_id": "207__401037_Timetable_-_2026-04",
        "route_id": "410",
        "timestamp": 1781872941
      }
    },
    {
      "type": "Feature",
      "geometry": {
        "type": "Point",
        "coordinates": [
          -79.01716613769531,
          43.90134811401367
        ]
      },
      "properties": {
        "vehicle_id": "8576",
        "bearing": 0.0,
        "speed": 0.0,
        "trip_id": "1551__401025_Timetable_-_2026-04",
        "route_id": "921",
        "timestamp": 1781872954
      }
    },
    {
      "type": "Feature",
      "geometry": {
        "type": "Point",
        "coordinates": [
          -78.8653335571289,
          43.897132873535156
        ]
      },
      "properties": {
        "vehicle_id": "8578",
        "bearing": 0.0,
        "speed": 0.0,
        "trip_id": "1644__401061_Timetable_-_2026-04",
        "route_id": "902",
        "timestamp": 1781872972
      }
    },
    {
      "type": "Feature",
      "geometry": {
        "type": "Point",
        "coordinates": [
          -79.09535217285156,
          43.83186721801758
        ]
      },
      "properties": {
        "vehicle_id": "8582",
        "bearing": 0.0,
        "speed": 0.0,
        "trip_id": "1548__401009_Timetable_-_2026-04",
        "route_id": "921",
        "timestamp": 1781872941
      }
    },
    {
      "type": "Feature",
      "geometry": {
        "type": "Point",
        "coordinates": [
          -78.70718383789062,
          43.90851593017578
        ]
      },
      "properties": {
        "vehicle_id": "8584",
        "bearing": 0.0,
        "speed": 0.0,
        "trip_id": "1339__403015_Timetable_-_2026-04",
        "route_id": "502",
        "timestamp": 1781872992
      }
    },
    {
      "type": "Feature",
      "geometry": {
        "type": "Point",
        "coordinates": [
          -78.89396667480469,
          43.94431686401367
        ]
      },
      "properties": {
        "vehicle_id": "8585",
        "bearing": 0.0,
        "speed": 0.0,
        "trip_id": "1635__401020_Timetable_-_2026-04",
        "route_id": "852",
        "timestamp": 1781872992
      }
    },
    {
      "type": "Feature",
      "geometry": {
        "type": "Point",
        "coordinates": [
          -78.8901138305664,
          43.943851470947266
        ]
      },
      "properties": {
        "vehicle_id": "8586",
        "bearing": 0.0,
        "speed": 0.0,
        "trip_id": "5274__402009_Timetable_-_2026-04",
        "route_id": "901",
        "timestamp": 1781872991
      }
    },
    {
      "type": "Feature",
      "geometry": {
        "type": "Point",
        "coordinates": [
          -78.68160247802734,
          43.91371536254883
        ]
      },
      "properties": {
        "vehicle_id": "8587",
        "bearing": 0.0,
        "speed": 0.0,
        "trip_id": "1346__401001_Timetable_-_2026-04",
        "route_id": "502",
        "timestamp": 1781872974
      }
    },
    {
      "type": "Feature",
      "geometry": {
        "type": "Point",
        "coordinates": [
          -78.98834991455078,
          43.849365234375
        ]
      },
      "properties": {
        "vehicle_id": "8591",
        "bearing": 0.0,
        "speed": 0.0,
        "trip_id": "1301__201055_Timetable_-_2026-04",
        "route_id": "227",
        "timestamp": 1781872975
      }
    },
    {
      "type": "Feature",
      "geometry": {
        "type": "Point",
        "coordinates": [
          -78.90061950683594,
          43.889183044433594
        ]
      },
      "properties": {
        "vehicle_id": "8592",
        "bearing": 0.0,
        "speed": 0.0,
        "trip_id": "534__201083_Timetable_-_2026-04",
        "route_id": "900",
        "timestamp": 1781872986
      }
    },
    {
      "type": "Feature",
      "geometry": {
        "type": "Point",
        "coordinates": [
          -78.98326873779297,
          43.90919876098633
        ]
      },
      "properties": {
        "vehicle_id": "8601",
        "bearing": 0.0,
        "speed": 0.0,
        "trip_id": "1536__401053_Timetable_-_2026-04",
        "route_id": "921",
        "timestamp": 1781872995
      }
    },
    {
      "type": "Feature",
      "geometry": {
        "type": "Point",
        "coordinates": [
          -79.17048645019531,
          43.80853271484375
        ]
      },
      "properties": {
        "vehicle_id": "8603",
        "bearing": 0.0,
        "speed": 0.0,
        "trip_id": "1526__401032_Timetable_-_2026-04",
        "route_id": "921",
        "timestamp": 1781872973
      }
    },
    {
      "type": "Feature",
      "geometry": {
        "type": "Point",
        "coordinates": [
          -78.88925170898438,
          43.943115234375
        ]
      },
      "properties": {
        "vehicle_id": "8604",
        "bearing": 0.0,
        "speed": 0.0,
        "trip_id": "5344__401043_Timetable_-_2026-04",
        "route_id": "901",
        "timestamp": 1781872995
      }
    },
    {
      "type": "Feature",
      "geometry": {
        "type": "Point",
        "coordinates": [
          -78.71151733398438,
          43.93265151977539
        ]
      },
      "properties": {
        "vehicle_id": "8605",
        "bearing": 0.0,
        "speed": 0.0,
        "trip_id": "1344__401054_Timetable_-_2026-04",
        "route_id": "502",
        "timestamp": 1781872973
      }
    },
    {
      "type": "Feature",
      "geometry": {
        "type": "Point",
        "coordinates": [
          -78.84861755371094,
          43.94183349609375
        ]
      },
      "properties": {
        "vehicle_id": "8606",
        "bearing": 0.0,
        "speed": 0.0,
        "trip_id": "209__401048_Timetable_-_2026-04",
        "route_id": "410",
        "timestamp": 1781872966
      }
    },
    {
      "type": "Feature",
      "geometry": {
        "type": "Point",
        "coordinates": [
          -78.82821655273438,
          43.8792839050293
        ]
      },
      "properties": {
        "vehicle_id": "8608",
        "bearing": 0.0,
        "speed": 0.0,
        "trip_id": "1075__401040_Timetable_-_2026-04",
        "route_id": "421",
        "timestamp": 1781872992
      }
    },
    {
      "type": "Feature",
      "geometry": {
        "type": "Point",
        "coordinates": [
          -78.84956359863281,
          43.91476821899414
        ]
      },
      "properties": {
        "vehicle_id": "8609",
        "bearing": 0.0,
        "speed": 0.0,
        "trip_id": "77__401002_Timetable_-_2026-04",
        "route_id": "405",
        "timestamp": 1781872995
      }
    },
    {
      "type": "Feature",
      "geometry": {
        "type": "Point",
        "coordinates": [
          -78.81365203857422,
          43.898250579833984
        ]
      },
      "properties": {
        "vehicle_id": "8610",
        "bearing": 0.0,
        "speed": 0.0,
        "trip_id": "271__401016_Timetable_-_2026-04",
        "route_id": "423",
        "timestamp": 1781872980
      }
    },
    {
      "type": "Feature",
      "geometry": {
        "type": "Point",
        "coordinates": [
          -78.9454345703125,
          43.84851837158203
        ]
      },
      "properties": {
        "vehicle_id": "8611",
        "bearing": 0.0,
        "speed": 0.0,
        "trip_id": "2086__201042_Timetable_-_2026-04",
        "route_id": "392",
        "timestamp": 1781872943
      }
    },
    {
      "type": "Feature",
      "geometry": {
        "type": "Point",
        "coordinates": [
          -78.89986419677734,
          43.964115142822266
        ]
      },
      "properties": {
        "vehicle_id": "8614",
        "bearing": 0.0,
        "speed": 0.0,
        "trip_id": "2332__201097_Timetable_-_2026-04",
        "route_id": "905",
        "timestamp": 1781872982
      }
    },
    {
      "type": "Feature",
      "geometry": {
        "type": "Point",
        "coordinates": [
          -78.849853515625,
          43.93939971923828
        ]
      },
      "properties": {
        "vehicle_id": "8619",
        "bearing": 0.0,
        "speed": 0.0,
        "trip_id": "5748__201021_Timetable_-_2026-04",
        "route_id": "915",
        "timestamp": 1781872963
      }
    },
    {
      "type": "Feature",
      "geometry": {
        "type": "Point",
        "coordinates": [
          -78.90274810791016,
          43.888816833496094
        ]
      },
      "properties": {
        "vehicle_id": "8620",
        "bearing": 0.0,
        "speed": 0.0,
        "trip_id": "471__201019_Timetable_-_2026-04",
        "route_id": "900",
        "timestamp": 1781872976
      }
    },
    {
      "type": "Feature",
      "geometry": {
        "type": "Point",
        "coordinates": [
          -78.84795379638672,
          43.935768127441406
        ]
      },
      "properties": {
        "vehicle_id": "8621",
        "bearing": 0.0,
        "speed": 0.0,
        "trip_id": "5645__201076_Timetable_-_2026-04",
        "route_id": "916",
        "timestamp": 1781872993
      }
    },
    {
      "type": "Feature",
      "geometry": {
        "type": "Point",
        "coordinates": [
          -78.90689849853516,
          43.872501373291016
        ]
      },
      "properties": {
        "vehicle_id": "8622",
        "bearing": 0.0,
        "speed": 0.0,
        "trip_id": "2308__201096_Timetable_-_2026-04",
        "route_id": "905",
        "timestamp": 1781872985
      }
    },
    {
      "type": "Feature",
      "geometry": {
        "type": "Point",
        "coordinates": [
          -78.8785629272461,
          43.956417083740234
        ]
      },
      "properties": {
        "vehicle_id": "8623",
        "bearing": 0.0,
        "speed": 0.0,
        "trip_id": "857__401023_Timetable_-_2026-04",
        "route_id": "419",
        "timestamp": 1781872976
      }
    },
    {
      "type": "Feature",
      "geometry": {
        "type": "Point",
        "coordinates": [
          -78.89418029785156,
          43.94404983520508
        ]
      },
      "properties": {
        "vehicle_id": "8624",
        "bearing": 0.0,
        "speed": 0.0,
        "trip_id": "1552__401019_Timetable_-_2026-04",
        "route_id": "921",
        "timestamp": 1781872991
      }
    },
    {
      "type": "Feature",
      "geometry": {
        "type": "Point",
        "coordinates": [
          -79.08751678466797,
          43.83811569213867
        ]
      },
      "properties": {
        "vehicle_id": "9101",
        "bearing": 0.0,
        "speed": 0.0,
        "trip_id": "1591__402005_Timetable_-_2026-04",
        "route_id": "900",
        "timestamp": 1781872977
      }
    },
    {
      "type": "Feature",
      "geometry": {
        "type": "Point",
        "coordinates": [
          -78.85874938964844,
          43.89966583251953
        ]
      },
      "properties": {
        "vehicle_id": "9102",
        "bearing": 0.0,
        "speed": 0.0,
        "trip_id": "442__402001_Timetable_-_2026-04",
        "route_id": "900",
        "timestamp": 1781872997
      }
    },
    {
      "type": "Feature",
      "geometry": {
        "type": "Point",
        "coordinates": [
          -79.0448989868164,
          43.85691833496094
        ]
      },
      "properties": {
        "vehicle_id": "9104",
        "bearing": 0.0,
        "speed": 0.0,
        "trip_id": "470__402003_Timetable_-_2026-04",
        "route_id": "900",
        "timestamp": 1781872976
      }
    },
    {
      "type": "Feature",
      "geometry": {
        "type": "Point",
        "coordinates": [
          -78.8720474243164,
          43.88778305053711
        ]
      },
      "properties": {
        "vehicle_id": "9105",
        "bearing": 0.0,
        "speed": 0.0,
        "trip_id": "5400__402004_Timetable_-_2026-04",
        "route_id": "901",
        "timestamp": 1781872943
      }
    },
    {
      "type": "Feature",
      "geometry": {
        "type": "Point",
        "coordinates": [
          -79.08998107910156,
          43.835899353027344
        ]
      },
      "properties": {
        "vehicle_id": "9106",
        "bearing": 0.0,
        "speed": 0.0,
        "trip_id": "535__402008_Timetable_-_2026-04",
        "route_id": "900",
        "timestamp": 1781872955
      }
    },
    {
      "type": "Feature",
      "geometry": {
        "type": "Point",
        "coordinates": [
          -79.19090270996094,
          43.78746795654297
        ]
      },
      "properties": {
        "vehicle_id": "9107",
        "bearing": 0.0,
        "speed": 0.0,
        "trip_id": "506__402007_Timetable_-_2026-04",
        "route_id": "900",
        "timestamp": 1781872951
      }
    }
  ]
}