{
  "type": "FeatureCollection",
  "features": [
    {
      "type": "Feature",
      "geometry": {
        "type": "Point",
        "coordinates": [
          -79.08698272705078,
          43.83821487426758
        ]
      },
      "properties": {
        "vehicle_id": "6100",
        "bearing": 0.0,
        "speed": 0.0,
        "trip_id": "1276__201059_Timetable_-_2026-04",
        "route_id": "211",
        "timestamp": 1781873620
      }
    },
    {
      "type": "Feature",
      "geometry": {
        "type": "Point",
        "coordinates": [
          -79.08513641357422,
          43.83293151855469
        ]
      },
      "properties": {
        "vehicle_id": "6101",
        "bearing": 0.0,
        "speed": 0.0,
        "trip_id": "5600__201036_Timetable_-_2026-04",
        "route_id": "916",
        "timestamp": 1781873656
      }
    },
    {
      "type": "Feature",
      "geometry": {
        "type": "Point",
        "coordinates": [
          -78.85449981689453,
          43.87023162841797
        ]
      },
      "properties": {
        "vehicle_id": "6103",
        "bearing": 0.0,
        "speed": 0.0,
        "trip_id": "5__401029_Timetable_-_2026-04",
        "route_id": "403",
        "timestamp": 1781873638
      }
    },
    {
      "type": "Feature",
      "geometry": {
        "type": "Point",
        "coordinates": [
          -79.0386962890625,
          43.85838317871094
        ]
      },
      "properties": {
        "vehicle_id": "6104",
        "bearing": 0.0,
        "speed": 0.0,
        "trip_id": "1436__201087_Timetable_-_2026-04",
        "route_id": "920",
        "timestamp": 1781873636
      }
    },
    {
      "type": "Feature",
      "geometry": {
        "type": "Point",
        "coordinates": [
          -78.88140106201172,
          43.874366760253906
        ]
      },
      "properties": {
        "vehicle_id": "6109",
        "bearing": 0.0,
        "speed": 0.0,
        "trip_id": "1049__401075_Timetable_-_2026-04",
        "route_id": "421",
        "timestamp": 1781873648
      }
    },
    {
      "type": "Feature",
      "geometry": {
        "type": "Point",
        "coordinates": [
          -78.86648559570312,
          43.90343475341797
        ]
      },
      "properties": {
        "vehicle_id": "6113",
        "bearing": 0.0,
        "speed": 0.0,
        "trip_id": "78__401081_Timetable_-_2026-04",
        "route_id": "405",
        "timestamp": 1781873609
      }
    },
    {
      "type": "Feature",
      "geometry": {
        "type": "Point",
        "coordinates": [
          -78.71685028076172,
          43.90968322753906
        ]
      },
      "properties": {
        "vehicle_id": "6115",
        "bearing": 0.0,
        "speed": 0.0,
        "trip_id": "1695__401055_Timetable_-_2026-04",
        "route_id": "902",
        "timestamp": 1781873611
      }
    },
    {
      "type": "Feature",
      "geometry": {
        "type": "Point",
        "coordinates": [
          -78.85465240478516,
          43.900665283203125
        ]
      },
      "properties": {
        "vehicle_id": "6118",
        "bearing": 0.0,
        "speed": 0.0,
        "trip_id": "1694__401062_Timetable_-_2026-04",
        "route_id": "902",
        "timestamp": 1781873602
      }
    },
    {
      "type": "Feature",
      "geometry": {
        "type": "Point",
        "coordinates": [
          -78.92096710205078,
          43.93095016479492
        ]
      },
      "properties": {
        "vehicle_id": "6119",
        "bearing": 0.0,
        "speed": 0.0,
        "trip_id": "297__401026_Timetable_-_2026-04",
        "route_id": "409",
        "timestamp": 1781873610
      }
    },
    {
      "type": "Feature",
      "geometry": {
        "type": "Point",
        "coordinates": [
          -79.11811828613281,
          43.87746810913086
        ]
      },
      "properties": {
        "vehicle_id": "6120",
        "bearing": 0.0,
        "speed": 0.0,
        "trip_id": "2298__201001_Timetable_-_2026-04",
        "route_id": "112",
        "timestamp": 1781873636
      }
    },
    {
      "type": "Feature",
      "geometry": {
        "type": "Point",
        "coordinates": [
          -79.02528381347656,
          43.828582763671875
        ]
      },
      "properties": {
        "vehicle_id": "6122",
        "bearing": 0.0,
        "speed": 0.0,
        "trip_id": "1312__201061_Timetable_-_2026-04",
        "route_id": "227",
        "timestamp": 1781873612
      }
    },
    {
      "type": "Feature",
      "geometry": {
        "type": "Point",
        "coordinates": [
          -79.11268615722656,
          43.888431549072266
        ]
      },
      "properties": {
        "vehicle_id": "6125",
        "bearing": 0.0,
        "speed": 0.0,
        "trip_id": "2286__201004_Timetable_-_2026-04",
        "route_id": "112",
        "timestamp": 1781873651
      }
    },
    {
      "type": "Feature",
      "geometry": {
        "type": "Point",
        "coordinates": [
          -78.94505310058594,
          43.918033599853516
        ]
      },
      "properties": {
        "vehicle_id": "6126",
        "bearing": 0.0,
        "speed": 0.0,
        "trip_id": "910__201031_Timetable_-_2026-04",
        "route_id": "319",
        "timestamp": 1781873597
      }
    },
    {
      "type": "Feature",
      "geometry": {
        "type": "Point",
        "coordinates": [
          -79.04098510742188,
          43.8531494140625
        ]
      },
      "properties": {
        "vehicle_id": "6127",
        "bearing": 0.0,
        "speed": 0.0,
        "trip_id": "1288__201056_Timetable_-_2026-04",
        "route_id": "211",
        "timestamp": 1781873609
      }
    },
    {
      "type": "Feature",
      "geometry": {
        "type": "Point",
        "coordinates": [
          -78.91311645507812,
          43.886348724365234
        ]
      },
      "properties": {
        "vehicle_id": "6128",
        "bearing": 0.0,
        "speed": 0.0,
        "trip_id": "1600__201016_Timetable_-_2026-04",
        "route_id": "900",
        "timestamp": 1781873609
      }
    },
    {
      "type": "Feature",
      "geometry": {
        "type": "Point",
        "coordinates": [
          -78.87281799316406,
          43.87675094604492
        ]
      },
      "properties": {
        "vehicle_id": "6130",
        "bearing": 0.0,
        "speed": 0.0,
        "trip_id": "2457__403009_Timetable_-_2026-04",
        "route_id": "801",
        "timestamp": 1781873628
      }
    },
    {
      "type": "Feature",
      "geometry": {
        "type": "Point",
        "coordinates": [
          -79.2107162475586,
          43.7960319519043
        ]
      },
      "properties": {
        "vehicle_id": "6134",
        "bearing": 0.0,
        "speed": 0.0,
        "trip_id": "2480__403011_Timetable_-_2026-04",
        "route_id": "921",
        "timestamp": 1781873634
      }
    },
    {
      "type": "Feature",
      "geometry": {
        "type": "Point",
        "coordinates": [
          -78.97913360595703,
          43.89101791381836
        ]
      },
      "properties": {
        "vehicle_id": "6136",
        "bearing": 0.0,
        "speed": 0.0,
        "trip_id": "1437__201086_Timetable_-_2026-04",
        "route_id": "920",
        "timestamp": 1781873601
      }
    },
    {
      "type": "Feature",
      "geometry": {
        "type": "Point",
        "coordinates": [
          -78.93848419189453,
          44.1022834777832
        ]
      },
      "properties": {
        "vehicle_id": "6137",
        "bearing": 0.0,
        "speed": 0.0,
        "trip_id": "5805__401045_Timetable_-_2026-04",
        "route_id": "618",
        "timestamp": 1781873629
      }
    },
    {
      "type": "Feature",
      "geometry": {
        "type": "Point",
        "coordinates": [
          -78.89556884765625,
          43.943199157714844
        ]
      },
      "properties": {
        "vehicle_id": "6138",
        "bearing": 0.0,
        "speed": 0.0,
        "trip_id": "2183__201046_Timetable_-_2026-04",
        "route_id": "302",
        "timestamp": 1781873646
      }
    },
    {
      "type": "Feature",
      "geometry": {
        "type": "Point",
        "coordinates": [
          -78.85076904296875,
          43.94746780395508
        ]
      },
      "properties": {
        "vehicle_id": "6139",
        "bearing": 0.0,
        "speed": 0.0,
        "trip_id": "79__401013_Timetable_-_2026-04",
        "route_id": "405",
        "timestamp": 1781873648
      }
    },
    {
      "type": "Feature",
      "geometry": {
        "type": "Point",
        "coordinates": [
          -79.08486938476562,
          43.83301544189453
        ]
      },
      "properties": {
        "vehicle_id": "6140",
        "bearing": 0.0,
        "speed": 0.0,
        "trip_id": "2245__201073_Timetable_-_2026-04",
        "route_id": "112",
        "timestamp": 1781873618
      }
    },
    {
      "type": "Feature",
      "geometry": {
        "type": "Point",
        "coordinates": [
          -79.03669738769531,
          43.886600494384766
        ]
      },
      "properties": {
        "vehicle_id": "6142",
        "bearing": 0.0,
        "speed": 0.0,
        "trip_id": "1155__201006_Timetable_-_2026-04",
        "route_id": "216",
        "timestamp": 1781873657
      }
    },
    {
      "type": "Feature",
      "geometry": {
        "type": "Point",
        "coordinates": [
          -78.95581817626953,
          44.11143493652344
        ]
      },
      "properties": {
        "vehicle_id": "6143",
        "bearing": 0.0,
        "speed": 0.0,
        "trip_id": "1782__201045_Timetable_-_2026-04",
        "route_id": "905",
        "timestamp": 1781873644
      }
    },
    {
      "type": "Feature",
      "geometry": {
        "type": "Point",
        "coordinates": [
          -79.08712005615234,
          43.82848358154297
        ]
      },
      "properties": {
        "vehicle_id": "6144",
        "bearing": 0.0,
        "speed": 0.0,
        "trip_id": "735__201044_Timetable_-_2026-04",
        "route_id": "101",
        "timestamp": 1781873656
      }
    },
    {
      "type": "Feature",
      "geometry": {
        "type": "Point",
        "coordinates": [
          -79.01063537597656,
          43.88361740112305
        ]
      },
      "properties": {
        "vehicle_id": "6146",
        "bearing": 0.0,
        "speed": 0.0,
        "trip_id": "5644__201022_Timetable_-_2026-04",
        "route_id": "916",
        "timestamp": 1781873625
      }
    },
    {
      "type": "Feature",
      "geometry": {
        "type": "Point",
        "coordinates": [
          -78.85176849365234,
          43.89528274536133
        ]
      },
      "properties": {
        "vehicle_id": "6147",
        "bearing": 0.0,
        "speed": 0.0,
        "trip_id": "145__403002_Timetable_-_2026-04",
        "route_id": "407",
        "timestamp": 1781873616
      }
    },
    {
      "type": "Feature",
      "geometry": {
        "type": "Point",
        "coordinates": [
          -79.04113006591797,
          43.84736633300781
        ]
      },
      "properties": {
        "vehicle_id": "6148",
        "bearing": 0.0,
        "speed": 0.0,
        "trip_id": "1311__201070_Timetable_-_2026-04",
        "route_id": "227",
        "timestamp": 1781873646
      }
    },
    {
      "type": "Feature",
      "geometry": {
        "type": "Point",
        "coordinates": [
          -78.68634796142578,
          43.911468505859375
        ]
      },
      "properties": {
        "vehicle_id": "6149",
        "bearing": 0.0,
        "speed": 0.0,
        "trip_id": "2424__403003_Timetable_-_2026-04",
        "route_id": "505",
        "timestamp": 1781873649
      }
    },
    {
      "type": "Feature",
      "geometry": {
        "type": "Point",
        "coordinates": [
          -79.12548065185547,
          44.427284240722656
        ]
      },
      "properties": {
        "vehicle_id": "6150",
        "bearing": 0.0,
        "speed": 0.0,
        "trip_id": "1504__401035_Timetable_-_2026-04",
        "route_id": "618",
        "timestamp": 1781873604
      }
    },
    {
      "type": "Feature",
      "geometry": {
        "type": "Point",
        "coordinates": [
          -78.95958709716797,
          43.94413375854492
        ]
      },
      "properties": {
        "vehicle_id": "6151",
        "bearing": 0.0,
        "speed": 0.0,
        "trip_id": "2105__201066_Timetable_-_2026-04",
        "route_id": "302",
        "timestamp": 1781873655
      }
    },
    {
      "type": "Feature",
      "geometry": {
        "type": "Point",
        "coordinates": [
          -79.03946685791016,
          43.84648513793945
        ]
      },
      "properties": {
        "vehicle_id": "6152",
        "bearing": 0.0,
        "speed": 0.0,
        "trip_id": "1137__201040_Timetable_-_2026-04",
        "route_id": "216",
        "timestamp": 1781873625
      }
    },
    {
      "type": "Feature",
      "geometry": {
        "type": "Point",
        "coordinates": [
          -79.02198028564453,
          43.85143280029297
        ]
      },
      "properties": {
        "vehicle_id": "6153",
        "bearing": 0.0,
        "speed": 0.0,
        "trip_id": "717__201048_Timetable_-_2026-04",
        "route_id": "224",
        "timestamp": 1781873630
      }
    },
    {
      "type": "Feature",
      "geometry": {
        "type": "Point",
        "coordinates": [
          -79.0328140258789,
          43.878517150878906
        ]
      },
      "properties": {
        "vehicle_id": "6154",
        "bearing": 0.0,
        "speed": 0.0,
        "trip_id": "5599__201072_Timetable_-_2026-04",
        "route_id": "916",
        "timestamp": 1781873633
      }
    },
    {
      "type": "Feature",
      "geometry": {
        "type": "Point",
        "coordinates": [
          -78.92396545410156,
          43.912567138671875
        ]
      },
      "properties": {
        "vehicle_id": "6157",
        "bearing": 0.0,
        "speed": 0.0,
        "trip_id": "1412__201089_Timetable_-_2026-04",
        "route_id": "920",
        "timestamp": 1781873615
      }
    },
    {
      "type": "Feature",
      "geometry": {
        "type": "Point",
        "coordinates": [
          -79.12388610839844,
          43.81264877319336
        ]
      },
      "properties": {
        "vehicle_id": "7100",
        "bearing": 0.0,
        "speed": 0.0,
        "trip_id": "1533__401021_Timetable_-_2026-04",
        "route_id": "921",
        "timestamp": 1781873644
      }
    },
    {
      "type": "Feature",
      "geometry": {
        "type": "Point",
        "coordinates": [
          -79.0217514038086,
          43.84320068359375
        ]
      },
      "properties": {
        "vehicle_id": "7101",
        "bearing": 0.0,
        "speed": 0.0,
        "trip_id": "1105__201065_Timetable_-_2026-04",
        "route_id": "216",
        "timestamp": 1781873607
      }
    },
    {
      "type": "Feature",
      "geometry": {
        "type": "Point",
        "coordinates": [
          -78.87000274658203,
          43.88836669921875
        ]
      },
      "properties": {
        "vehicle_id": "7102",
        "bearing": 0.0,
        "speed": 0.0,
        "trip_id": "5307__401041_Timetable_-_2026-04",
        "route_id": "901",
        "timestamp": 1781873634
      }
    },
    {
      "type": "Feature",
      "geometry": {
        "type": "Point",
        "coordinates": [
          -78.91380310058594,
          43.88876724243164
        ]
      },
      "properties": {
        "vehicle_id": "7104",
        "bearing": 0.0,
        "speed": 0.0,
        "trip_id": "1795__201067_Timetable_-_2026-04",
        "route_id": "905",
        "timestamp": 1781873657
      }
    },
    {
      "type": "Feature",
      "geometry": {
        "type": "Point",
        "coordinates": [
          -79.0844497680664,
          43.830848693847656
        ]
      },
      "properties": {
        "vehicle_id": "7105",
        "bearing": 0.0,
        "speed": 0.0,
        "trip_id": "828__201024_Timetable_-_2026-04",
        "route_id": "121",
        "timestamp": 1781873631
      }
    },
    {
      "type": "Feature",
      "geometry": {
        "type": "Point",
        "coordinates": [
          -78.880615234375,
          43.86259841918945
        ]
      },
      "properties": {
        "vehicle_id": "7107",
        "bearing": 0.0,
        "speed": 0.0,
        "trip_id": "38__401007_Timetable_-_2026-04",
        "route_id": "403",
        "timestamp": 1781873623
      }
    },
    {
      "type": "Feature",
      "geometry": {
        "type": "Point",
        "coordinates": [
          -78.83650207519531,
          43.957550048828125
        ]
      },
      "properties": {
        "vehicle_id": "7108",
        "bearing": 0.0,
        "speed": 0.0,
        "trip_id": "5698__201075_Timetable_-_2026-04",
        "route_id": "915",
        "timestamp": 1781873645
      }
    },
    {
      "type": "Feature",
      "geometry": {
        "type": "Point",
        "coordinates": [
          -78.96923065185547,
          43.888084411621094
        ]
      },
      "properties": {
        "vehicle_id": "7109",
        "bearing": 0.0,
        "speed": 0.0,
        "trip_id": "1230__201033_Timetable_-_2026-04",
        "route_id": "301",
        "timestamp": 1781873616
      }
    },
    {
      "type": "Feature",
      "geometry": {
        "type": "Point",
        "coordinates": [
          -78.8448486328125,
          43.88294982910156
        ]
      },
      "properties": {
        "vehicle_id": "7110",
        "bearing": 0.0,
        "speed": 0.0,
        "trip_id": "142__401010_Timetable_-_2026-04",
        "route_id": "407",
        "timestamp": 1781873602
      }
    },
    {
      "type": "Feature",
      "geometry": {
        "type": "Point",
        "coordinates": [
          -78.93756866455078,
          43.864933013916016
        ]
      },
      "properties": {
        "vehicle_id": "7111",
        "bearing": 0.0,
        "speed": 0.0,
        "trip_id": "704__401042_Timetable_-_2026-04",
        "route_id": "917",
        "timestamp": 1781873657
      }
    },
    {
      "type": "Feature",
      "geometry": {
        "type": "Point",
        "coordinates": [
          -78.85133361816406,
          43.87748336791992
        ]
      },
      "properties": {
        "vehicle_id": "7112",
        "bearing": 0.0,
        "speed": 0.0,
        "trip_id": "5275__401089_Timetable_-_2026-04",
        "route_id": "901",
        "timestamp": 1781873625
      }
    },
    {
      "type": "Feature",
      "geometry": {
        "type": "Point",
        "coordinates": [
          -78.87325286865234,
          43.927066802978516
        ]
      },
      "properties": {
        "vehicle_id": "7114",
        "bearing": 0.0,
        "speed": 0.0,
        "trip_id": "143__401083_Timetable_-_2026-04",
        "route_id": "407",
        "timestamp": 1781873644
      }
    },
    {
      "type": "Feature",
      "geometry": {
        "type": "Point",
        "coordinates": [
          -79.06842041015625,
          43.870933532714844
        ]
      },
      "properties": {
        "vehicle_id": "7115",
        "bearing": 0.0,
        "speed": 0.0,
        "trip_id": "5643__201027_Timetable_-_2026-04",
        "route_id": "916",
        "timestamp": 1781873644
      }
    },
    {
      "type": "Feature",
      "geometry": {
        "type": "Point",
        "coordinates": [
          -78.93743133544922,
          43.86518478393555
        ]
      },
      "properties": {
        "vehicle_id": "7116",
        "bearing": 0.0,
        "speed": 0.0,
        "trip_id": "2083__201013_Timetable_-_2026-04",
        "route_id": "302",
        "timestamp": 1781873634
      }
    },
    {
      "type": "Feature",
      "geometry": {
        "type": "Point",
        "coordinates": [
          -78.93778228759766,
          43.865116119384766
        ]
      },
      "properties": {
        "vehicle_id": "7118",
        "bearing": 0.0,
        "speed": 0.0,
        "trip_id": "1770__201041_Timetable_-_2026-04",
        "route_id": "905",
        "timestamp": 1781873618
      }
    },
    {
      "type": "Feature",
      "geometry": {
        "type": "Point",
        "coordinates": [
          -78.96576690673828,
          43.956966400146484
        ]
      },
      "properties": {
        "vehicle_id": "7119",
        "bearing": 0.0,
        "speed": 0.0,
        "trip_id": "2165__201034_Timetable_-_2026-04",
        "route_id": "302",
        "timestamp": 1781873654
      }
    },
    {
      "type": "Feature",
      "geometry": {
        "type": "Point",
        "coordinates": [
          -78.8539810180664,
          43.89988327026367
        ]
      },
      "properties": {
        "vehicle_id": "7120",
        "bearing": 0.0,
        "speed": 0.0,
        "trip_id": "472__201018_Timetable_-_2026-04",
        "route_id": "900",
        "timestamp": 1781873648
      }
    },
    {
      "type": "Feature",
      "geometry": {
        "type": "Point",
        "coordinates": [
          -78.85188293457031,
          43.9453010559082
        ]
      },
      "properties": {
        "vehicle_id": "7121",
        "bearing": 0.0,
        "speed": 0.0,
        "trip_id": "5597__201074_Timetable_-_2026-04",
        "route_id": "916",
        "timestamp": 1781873606
      }
    },
    {
      "type": "Feature",
      "geometry": {
        "type": "Point",
        "coordinates": [
          -78.94923400878906,
          43.871315002441406
        ]
      },
      "properties": {
        "vehicle_id": "7122",
        "bearing": 0.0,
        "speed": 0.0,
        "trip_id": "1324__201009_Timetable_-_2026-04",
        "route_id": "306",
        "timestamp": 1781873609
      }
    },
    {
      "type": "Feature",
      "geometry": {
        "type": "Point",
        "coordinates": [
          -78.85966491699219,
          43.8890495300293
        ]
      },
      "properties": {
        "vehicle_id": "7124",
        "bearing": 0.0,
        "speed": 0.0,
        "trip_id": "291__401047_Timetable_-_2026-04",
        "route_id": "423",
        "timestamp": 1781873642
      }
    },
    {
      "type": "Feature",
      "geometry": {
        "type": "Point",
        "coordinates": [
          -78.85265350341797,
          43.94649887084961
        ]
      },
      "properties": {
        "vehicle_id": "8470",
        "bearing": 0.0,
        "speed": 0.0,
        "trip_id": "148__401046_Timetable_-_2026-04",
        "route_id": "407",
        "timestamp": 1781873624
      }
    },
    {
      "type": "Feature",
      "geometry": {
        "type": "Point",
        "coordinates": [
          -78.90564727783203,
          43.87271499633789
        ]
      },
      "properties": {
        "vehicle_id": "8471",
        "bearing": 0.0,
        "speed": 0.0,
        "trip_id": "661__401004_Timetable_-_2026-04",
        "route_id": "917",
        "timestamp": 1781873652
      }
    },
    {
      "type": "Feature",
      "geometry": {
        "type": "Point",
        "coordinates": [
          -79.11710357666016,
          43.840667724609375
        ]
      },
      "properties": {
        "vehicle_id": "8472",
        "bearing": 0.0,
        "speed": 0.0,
        "trip_id": "827__201080_Timetable_-_2026-04",
        "route_id": "121",
        "timestamp": 1781873636
      }
    },
    {
      "type": "Feature",
      "geometry": {
        "type": "Point",
        "coordinates": [
          -78.9378662109375,
          43.865264892578125
        ]
      },
      "properties": {
        "vehicle_id": "8501",
        "bearing": 0.0,
        "speed": 0.0,
        "trip_id": "2309__201095_Timetable_-_2026-04",
        "route_id": "905",
        "timestamp": 1781873605
      }
    },
    {
      "type": "Feature",
      "geometry": {
        "type": "Point",
        "coordinates": [
          -79.14413452148438,
          43.83509826660156
        ]
      },
      "properties": {
        "vehicle_id": "8503",
        "bearing": 0.0,
        "speed": 0.0,
        "trip_id": "796__201023_Timetable_-_2026-04",
        "route_id": "121",
        "timestamp": 1781873616
      }
    },
    {
      "type": "Feature",
      "geometry": {
        "type": "Point",
        "coordinates": [
          -79.08468627929688,
          43.83314895629883
        ]
      },
      "properties": {
        "vehicle_id": "8504",
        "bearing": 0.0,
        "speed": 0.0,
        "trip_id": "2247__201047_Timetable_-_2026-04",
        "route_id": "118",
        "timestamp": 1781873641
      }
    },
    {
      "type": "Feature",
      "geometry": {
        "type": "Point",
        "coordinates": [
          -79.06749725341797,
          43.83314895629883
        ]
      },
      "properties": {
        "vehicle_id": "8507",
        "bearing": 0.0,
        "speed": 0.0,
        "trip_id": "594__401033_Timetable_-_2026-04",
        "route_id": "917",
        "timestamp": 1781873624
      }
    },
    {
      "type": "Feature",
      "geometry": {
        "type": "Point",
        "coordinates": [
          -78.8285140991211,
          43.8827018737793
        ]
      },
      "properties": {
        "vehicle_id": "8508",
        "bearing": 0.0,
        "speed": 0.0,
        "trip_id": "146__401067_Timetable_-_2026-04",
        "route_id": "407",
        "timestamp": 1781873637
      }
    },
    {
      "type": "Feature",
      "geometry": {
        "type": "Point",
        "coordinates": [
          -79.01676940917969,
          43.86338424682617
        ]
      },
      "properties": {
        "vehicle_id": "8509",
        "bearing": 0.0,
        "speed": 0.0,
        "trip_id": "441__402006_Timetable_-_2026-04",
        "route_id": "900",
        "timestamp": 1781873614
      }
    },
    {
      "type": "Feature",
      "geometry": {
        "type": "Point",
        "coordinates": [
          -79.0304183959961,
          43.841400146484375
        ]
      },
      "properties": {
        "vehicle_id": "8513",
        "bearing": 0.0,
        "speed": 0.0,
        "trip_id": "1185__201064_Timetable_-_2026-04",
        "route_id": "216",
        "timestamp": 1781873628
      }
    },
    {
      "type": "Feature",
      "geometry": {
        "type": "Point",
        "coordinates": [
          -79.0246353149414,
          43.84638214111328
        ]
      },
      "properties": {
        "vehicle_id": "8514",
        "bearing": 0.0,
        "speed": 0.0,
        "trip_id": "637__201014_Timetable_-_2026-04",
        "route_id": "917",
        "timestamp": 1781873613
      }
    },
    {
      "type": "Feature",
      "geometry": {
        "type": "Point",
        "coordinates": [
          -78.93765258789062,
          43.86520004272461
        ]
      },
      "properties": {
        "vehicle_id": "8515",
        "bearing": 0.0,
        "speed": 0.0,
        "trip_id": "1245__201035_Timetable_-_2026-04",
        "route_id": "319",
        "timestamp": 1781873602
      }
    },
    {
      "type": "Feature",
      "geometry": {
        "type": "Point",
        "coordinates": [
          -79.12519836425781,
          44.109500885009766
        ]
      },
      "properties": {
        "vehicle_id": "8524",
        "bearing": 0.0,
        "speed": 0.0,
        "trip_id": "1817__201025_Timetable_-_2026-04",
        "route_id": "605",
        "timestamp": 1781873652
      }
    },
    {
      "type": "Feature",
      "geometry": {
        "type": "Point",
        "coordinates": [
          -78.90061950683594,
          43.95814895629883
        ]
      },
      "properties": {
        "vehicle_id": "8525",
        "bearing": 0.0,
        "speed": 0.0,
        "trip_id": "1748__201038_Timetable_-_2026-04",
        "route_id": "905",
        "timestamp": 1781873632
      }
    },
    {
      "type": "Feature",
      "geometry": {
        "type": "Point",
        "coordinates": [
          -79.05058288574219,
          43.89323425292969
        ]
      },
      "properties": {
        "vehicle_id": "8526",
        "bearing": 0.0,
        "speed": 0.0,
        "trip_id": "5696__201026_Timetable_-_2026-04",
        "route_id": "915",
        "timestamp": 1781873622
      }
    },
    {
      "type": "Feature",
      "geometry": {
        "type": "Point",
        "coordinates": [
          -78.92066955566406,
          43.90403366088867
        ]
      },
      "properties": {
        "vehicle_id": "8528",
        "bearing": 0.0,
        "speed": 0.0,
        "trip_id": "5598__201003_Timetable_-_2026-04",
        "route_id": "916",
        "timestamp": 1781873642
      }
    },
    {
      "type": "Feature",
      "geometry": {
        "type": "Point",
        "coordinates": [
          -79.15284729003906,
          43.8018684387207
        ]
      },
      "properties": {
        "vehicle_id": "8529",
        "bearing": 0.0,
        "speed": 0.0,
        "trip_id": "1532__401099_Timetable_-_2026-04",
        "route_id": "921",
        "timestamp": 1781873641
      }
    },
    {
      "type": "Feature",
      "geometry": {
        "type": "Point",
        "coordinates": [
          -79.08493041992188,
          43.83303451538086
        ]
      },
      "properties": {
        "vehicle_id": "8531",
        "bearing": 0.0,
        "speed": 0.0,
        "trip_id": "1414__201079_Timetable_-_2026-04",
        "route_id": "920",
        "timestamp": 1781873644
      }
    },
    {
      "type": "Feature",
      "geometry": {
        "type": "Point",
        "coordinates": [
          -79.073486328125,
          43.84808349609375
        ]
      },
      "properties": {
        "vehicle_id": "8532",
        "bearing": 0.0,
        "speed": 0.0,
        "trip_id": "505__201017_Timetable_-_2026-04",
        "route_id": "900",
        "timestamp": 1781873615
      }
    },
    {
      "type": "Feature",
      "geometry": {
        "type": "Point",
        "coordinates": [
          -78.98052978515625,
          43.909950256347656
        ]
      },
      "properties": {
        "vehicle_id": "8534",
        "bearing": 0.0,
        "speed": 0.0,
        "trip_id": "1550__401079_Timetable_-_2026-04",
        "route_id": "921",
        "timestamp": 1781873627
      }
    },
    {
      "type": "Feature",
      "geometry": {
        "type": "Point",
        "coordinates": [
          -79.01155090332031,
          43.902584075927734
        ]
      },
      "properties": {
        "vehicle_id": "8536",
        "bearing": 0.0,
        "speed": 0.0,
        "trip_id": "5750__201029_Timetable_-_2026-04",
        "route_id": "915",
        "timestamp": 1781873617
      }
    },
    {
      "type": "Feature",
      "geometry": {
        "type": "Point",
        "coordinates": [
          -78.8994140625,
          43.95618438720703
        ]
      },
      "properties": {
        "vehicle_id": "8539",
        "bearing": 0.0,
        "speed": 0.0,
        "trip_id": "881__401018_Timetable_-_2026-04",
        "route_id": "419",
        "timestamp": 1781873603
      }
    },
    {
      "type": "Feature",
      "geometry": {
        "type": "Point",
        "coordinates": [
          -79.01451873779297,
          43.859798431396484
        ]
      },
      "properties": {
        "vehicle_id": "8540",
        "bearing": 0.0,
        "speed": 0.0,
        "trip_id": "621__201028_Timetable_-_2026-04",
        "route_id": "224",
        "timestamp": 1781873608
      }
    },
    {
      "type": "Feature",
      "geometry": {
        "type": "Point",
        "coordinates": [
          -79.0412368774414,
          43.84669876098633
        ]
      },
      "properties": {
        "vehicle_id": "8541",
        "bearing": 0.0,
        "speed": 0.0,
        "trip_id": "5751__201077_Timetable_-_2026-04",
        "route_id": "915",
        "timestamp": 1781873609
      }
    },
    {
      "type": "Feature",
      "geometry": {
        "type": "Point",
        "coordinates": [
          -79.01741790771484,
          43.87118148803711
        ]
      },
      "properties": {
        "vehicle_id": "8542",
        "bearing": 0.0,
        "speed": 0.0,
        "trip_id": "1413__201088_Timetable_-_2026-04",
        "route_id": "920",
        "timestamp": 1781873595
      }
    },
    {
      "type": "Feature",
      "geometry": {
        "type": "Point",
        "coordinates": [
          -78.8736343383789,
          43.93406677246094
        ]
      },
      "properties": {
        "vehicle_id": "8543",
        "bearing": 0.0,
        "speed": 0.0,
        "trip_id": "5749__201002_Timetable_-_2026-04",
        "route_id": "915",
        "timestamp": 1781873644
      }
    },
    {
      "type": "Feature",
      "geometry": {
        "type": "Point",
        "coordinates": [
          -78.89593505859375,
          43.94333267211914
        ]
      },
      "properties": {
        "vehicle_id": "8544",
        "bearing": 0.0,
        "speed": 0.0,
        "trip_id": "1438__201084_Timetable_-_2026-04",
        "route_id": "920",
        "timestamp": 1781873598
      }
    },
    {
      "type": "Feature",
      "geometry": {
        "type": "Point",
        "coordinates": [
          -79.00804901123047,
          43.897865295410156
        ]
      },
      "properties": {
        "vehicle_id": "8545",
        "bearing": 0.0,
        "speed": 0.0,
        "trip_id": "1186__201030_Timetable_-_2026-04",
        "route_id": "216",
        "timestamp": 1781873625
      }
    },
    {
      "type": "Feature",
      "geometry": {
        "type": "Point",
        "coordinates": [
          -78.9592514038086,
          43.9150505065918
        ]
      },
      "properties": {
        "vehicle_id": "8547",
        "bearing": 0.0,
        "speed": 0.0,
        "trip_id": "5697__201005_Timetable_-_2026-04",
        "route_id": "915",
        "timestamp": 1781873631
      }
    },
    {
      "type": "Feature",
      "geometry": {
        "type": "Point",
        "coordinates": [
          -78.86478424072266,
          43.90016555786133
        ]
      },
      "properties": {
        "vehicle_id": "8555",
        "bearing": 0.0,
        "speed": 0.0,
        "trip_id": "5401__401097_Timetable_-_2026-04",
        "route_id": "901",
        "timestamp": 1781873656
      }
    },
    {
      "type": "Feature",
      "geometry": {
        "type": "Point",
        "coordinates": [
          -78.71160125732422,
          43.90810012817383
        ]
      },
      "properties": {
        "vehicle_id": "8559",
        "bearing": 0.0,
        "speed": 0.0,
        "trip_id": "1643__401051_Timetable_-_2026-04",
        "route_id": "902",
        "timestamp": 1781873656
      }
    },
    {
      "type": "Feature",
      "geometry": {
        "type": "Point",
        "coordinates": [
          -78.89008331298828,
          43.8838005065918
        ]
      },
      "properties": {
        "vehicle_id": "8562",
        "bearing": 0.0,
        "speed": 0.0,
        "trip_id": "321__401038_Timetable_-_2026-04",
        "route_id": "409",
        "timestamp": 1781873655
      }
    },
    {
      "type": "Feature",
      "geometry": {
        "type": "Point",
        "coordinates": [
          -78.87715148925781,
          43.8892822265625
        ]
      },
      "properties": {
        "vehicle_id": "8564",
        "bearing": 0.0,
        "speed": 0.0,
        "trip_id": "1645__401059_Timetable_-_2026-04",
        "route_id": "902",
        "timestamp": 1781873652
      }
    },
    {
      "type": "Feature",
      "geometry": {
        "type": "Point",
        "coordinates": [
          -78.83094787597656,
          43.8977165222168
        ]
      },
      "properties": {
        "vehicle_id": "8567",
        "bearing": 0.0,
        "speed": 0.0,
        "trip_id": "208__401039_Timetable_-_2026-04",
        "route_id": "410",
        "timestamp": 1781873619
      }
    },
    {
      "type": "Feature",
      "geometry": {
        "type": "Point",
        "coordinates": [
          -79.22798156738281,
          43.7918815612793
        ]
      },
      "properties": {
        "vehicle_id": "8568",
        "bearing": 0.0,
        "speed": 0.0,
        "trip_id": "1535__401022_Timetable_-_2026-04",
        "route_id": "921",
        "timestamp": 1781873609
      }
    },
    {
      "type": "Feature",
      "geometry": {
        "type": "Point",
        "coordinates": [
          -78.87796783447266,
          43.88083267211914
        ]
      },
      "properties": {
        "vehicle_id": "8571",
        "bearing": 0.0,
        "speed": 0.0,
        "trip_id": "1693__401060_Timetable_-_2026-04",
        "route_id": "902",
        "timestamp": 1781873642
      }
    },
    {
      "type": "Feature",
      "geometry": {
        "type": "Point",
        "coordinates": [
          -78.90411376953125,
          43.96554946899414
        ]
      },
      "properties": {
        "vehicle_id": "8572",
        "bearing": 0.0,
        "speed": 0.0,
        "trip_id": "2445__401084_Timetable_-_2026-04",
        "route_id": "505",
        "timestamp": 1781873651
      }
    },
    {
      "type": "Feature",
      "geometry": {
        "type": "Point",
        "coordinates": [
          -78.86923217773438,
          43.8797492980957
        ]
      },
      "properties": {
        "vehicle_id": "8573",
        "bearing": 0.0,
        "speed": 0.0,
        "trip_id": "1076__401082_Timetable_-_2026-04",
        "route_id": "421",
        "timestamp": 1781873655
      }
    },
    {
      "type": "Feature",
      "geometry": {
        "type": "Point",
        "coordinates": [
          -78.877197265625,
          43.88945007324219
        ]
      },
      "properties": {
        "vehicle_id": "8575",
        "bearing": 0.0,
        "speed": 0.0,
        "trip_id": "272__401037_Timetable_-_2026-04",
        "route_id": "423",
        "timestamp": 1781873649
      }
    },
    {
      "type": "Feature",
      "geometry": {
        "type": "Point",
        "coordinates": [
          -79.08578491210938,
          43.874534606933594
        ]
      },
      "properties": {
        "vehicle_id": "8576",
        "bearing": 0.0,
        "speed": 0.0,
        "trip_id": "1551__401025_Timetable_-_2026-04",
        "route_id": "921",
        "timestamp": 1781873649
      }
    },
    {
      "type": "Feature",
      "geometry": {
        "type": "Point",
        "coordinates": [
          -78.8223648071289,
          43.9056510925293
        ]
      },
      "properties": {
        "vehicle_id": "8578",
        "bearing": 0.0,
        "speed": 0.0,
        "trip_id": "1644__401061_Timetable_-_2026-04",
        "route_id": "902",
        "timestamp": 1781873603
      }
    },
    {
      "type": "Feature",
      "geometry": {
        "type": "Point",
        "coordinates": [
          -79.08568572998047,
          43.87495040893555
        ]
      },
      "properties": {
        "vehicle_id": "8582",
        "bearing": 0.0,
        "speed": 0.0,
        "trip_id": "1548__401009_Timetable_-_2026-04",
        "route_id": "921",
        "timestamp": 1781873645
      }
    },
    {
      "type": "Feature",
      "geometry": {
        "type": "Point",
        "coordinates": [
          -78.69259643554688,
          43.900115966796875
        ]
      },
      "properties": {
        "vehicle_id": "8584",
        "bearing": 0.0,
        "speed": 0.0,
        "trip_id": "1345__403015_Timetable_-_2026-04",
        "route_id": "502",
        "timestamp": 1781873646
      }
    },
    {
      "type": "Feature",
      "geometry": {
        "type": "Point",
        "coordinates": [
          -78.89393615722656,
          43.944332122802734
        ]
      },
      "properties": {
        "vehicle_id": "8585",
        "bearing": 0.0,
        "speed": 0.0,
        "trip_id": "1635__401020_Timetable_-_2026-04",
        "route_id": "852",
        "timestamp": 1781873651
      }
    },
    {
      "type": "Feature",
      "geometry": {
        "type": "Point",
        "coordinates": [
          -78.88629913330078,
          43.941017150878906
        ]
      },
      "properties": {
        "vehicle_id": "8586",
        "bearing": 0.0,
        "speed": 0.0,
        "trip_id": "5345__402009_Timetable_-_2026-04",
        "route_id": "901",
        "timestamp": 1781873657
      }
    },
    {
      "type": "Feature",
      "geometry": {
        "type": "Point",
        "coordinates": [
          -78.71088409423828,
          43.93688201904297
        ]
      },
      "properties": {
        "vehicle_id": "8587",
        "bearing": 0.0,
        "speed": 0.0,
        "trip_id": "1346__401001_Timetable_-_2026-04",
        "route_id": "502",
        "timestamp": 1781873651
      }
    },
    {
      "type": "Feature",
      "geometry": {
        "type": "Point",
        "coordinates": [
          -79.01746368408203,
          43.83076477050781
        ]
      },
      "properties": {
        "vehicle_id": "8591",
        "bearing": 0.0,
        "speed": 0.0,
        "trip_id": "1301__201055_Timetable_-_2026-04",
        "route_id": "227",
        "timestamp": 1781873633
      }
    },
    {
      "type": "Feature",
      "geometry": {
        "type": "Point",
        "coordinates": [
          -78.8539810180664,
          43.89984893798828
        ]
      },
      "properties": {
        "vehicle_id": "8592",
        "bearing": 0.0,
        "speed": 0.0,
        "trip_id": "443__201083_Timetable_-_2026-04",
        "route_id": "900",
        "timestamp": 1781873626
      }
    },
    {
      "type": "Feature",
      "geometry": {
        "type": "Point",
        "coordinates": [
          -78.93226623535156,
          43.93203353881836
        ]
      },
      "properties": {
        "vehicle_id": "8601",
        "bearing": 0.0,
        "speed": 0.0,
        "trip_id": "1536__401053_Timetable_-_2026-04",
        "route_id": "921",
        "timestamp": 1781873631
      }
    },
    {
      "type": "Feature",
      "geometry": {
        "type": "Point",
        "coordinates": [
          -79.23410034179688,
          43.78976821899414
        ]
      },
      "properties": {
        "vehicle_id": "8603",
        "bearing": 0.0,
        "speed": 0.0,
        "trip_id": "1526__401032_Timetable_-_2026-04",
        "route_id": "921",
        "timestamp": 1781873643
      }
    },
    {
      "type": "Feature",
      "geometry": {
        "type": "Point",
        "coordinates": [
          -78.86711883544922,
          43.899932861328125
        ]
      },
      "properties": {
        "vehicle_id": "8604",
        "bearing": 0.0,
        "speed": 0.0,
        "trip_id": "5344__401043_Timetable_-_2026-04",
        "route_id": "901",
        "timestamp": 1781873654
      }
    },
    {
      "type": "Feature",
      "geometry": {
        "type": "Point",
        "coordinates": [
          -78.67721557617188,
          43.919734954833984
        ]
      },
      "properties": {
        "vehicle_id": "8605",
        "bearing": 0.0,
        "speed": 0.0,
        "trip_id": "1344__401054_Timetable_-_2026-04",
        "route_id": "502",
        "timestamp": 1781873647
      }
    },
    {
      "type": "Feature",
      "geometry": {
        "type": "Point",
        "coordinates": [
          -78.83847045898438,
          43.9272346496582
        ]
      },
      "properties": {
        "vehicle_id": "8606",
        "bearing": 0.0,
        "speed": 0.0,
        "trip_id": "209__401048_Timetable_-_2026-04",
        "route_id": "410",
        "timestamp": 1781873646
      }
    },
    {
      "type": "Feature",
      "geometry": {
        "type": "Point",
        "coordinates": [
          -78.79488372802734,
          43.89536666870117
        ]
      },
      "properties": {
        "vehicle_id": "8608",
        "bearing": 0.0,
        "speed": 0.0,
        "trip_id": "1075__401040_Timetable_-_2026-04",
        "route_id": "421",
        "timestamp": 1781873647
      }
    },
    {
      "type": "Feature",
      "geometry": {
        "type": "Point",
        "coordinates": [
          -78.88321685791016,
          43.89951705932617
        ]
      },
      "properties": {
        "vehicle_id": "8609",
        "bearing": 0.0,
        "speed": 0.0,
        "trip_id": "77__401002_Timetable_-_2026-04",
        "route_id": "405",
        "timestamp": 1781873627
      }
    },
    {
      "type": "Feature",
      "geometry": {
        "type": "Point",
        "coordinates": [
          -78.84483337402344,
          43.929134368896484
        ]
      },
      "properties": {
        "vehicle_id": "8610",
        "bearing": 0.0,
        "speed": 0.0,
        "trip_id": "271__401016_Timetable_-_2026-04",
        "route_id": "423",
        "timestamp": 1781873625
      }
    },
    {
      "type": "Feature",
      "geometry": {
        "type": "Point",
        "coordinates": [
          -78.93765258789062,
          43.86538314819336
        ]
      },
      "properties": {
        "vehicle_id": "8611",
        "bearing": 0.0,
        "speed": 0.0,
        "trip_id": "2437__201042_Timetable_-_2026-04",
        "route_id": "315",
        "timestamp": 1781873640
      }
    },
    {
      "type": "Feature",
      "geometry": {
        "type": "Point",
        "coordinates": [
          -78.87999725341797,
          43.9327507019043
        ]
      },
      "properties": {
        "vehicle_id": "8614",
        "bearing": 0.0,
        "speed": 0.0,
        "trip_id": "2332__201097_Timetable_-_2026-04",
        "route_id": "905",
        "timestamp": 1781873628
      }
    },
    {
      "type": "Feature",
      "geometry": {
        "type": "Point",
        "coordinates": [
          -78.8581314086914,
          43.95101547241211
        ]
      },
      "properties": {
        "vehicle_id": "8619",
        "bearing": 0.0,
        "speed": 0.0,
        "trip_id": "5646__201021_Timetable_-_2026-04",
        "route_id": "916",
        "timestamp": 1781873611
      }
    },
    {
      "type": "Feature",
      "geometry": {
        "type": "Point",
        "coordinates": [
          -78.96131896972656,
          43.8755989074707
        ]
      },
      "properties": {
        "vehicle_id": "8620",
        "bearing": 0.0,
        "speed": 0.0,
        "trip_id": "471__201019_Timetable_-_2026-04",
        "route_id": "900",
        "timestamp": 1781873645
      }
    },
    {
      "type": "Feature",
      "geometry": {
        "type": "Point",
        "coordinates": [
          -78.87706756591797,
          43.913818359375
        ]
      },
      "properties": {
        "vehicle_id": "8621",
        "bearing": 0.0,
        "speed": 0.0,
        "trip_id": "5645__201076_Timetable_-_2026-04",
        "route_id": "916",
        "timestamp": 1781873634
      }
    },
    {
      "type": "Feature",
      "geometry": {
        "type": "Point",
        "coordinates": [
          -78.92118072509766,
          43.91493225097656
        ]
      },
      "properties": {
        "vehicle_id": "8622",
        "bearing": 0.0,
        "speed": 0.0,
        "trip_id": "2308__201096_Timetable_-_2026-04",
        "route_id": "905",
        "timestamp": 1781873640
      }
    },
    {
      "type": "Feature",
      "geometry": {
        "type": "Point",
        "coordinates": [
          -78.85701751708984,
          43.95618438720703
        ]
      },
      "properties": {
        "vehicle_id": "8623",
        "bearing": 0.0,
        "speed": 0.0,
        "trip_id": "857__401023_Timetable_-_2026-04",
        "route_id": "419",
        "timestamp": 1781873633
      }
    },
    {
      "type": "Feature",
      "geometry": {
        "type": "Point",
        "coordinates": [
          -78.89555358886719,
          43.943599700927734
        ]
      },
      "properties": {
        "vehicle_id": "8624",
        "bearing": 0.0,
        "speed": 0.0,
        "trip_id": "1538__401019_Timetable_-_2026-04",
        "route_id": "921",
        "timestamp": 1781873625
      }
    },
    {
      "type": "Feature",
      "geometry": {
        "type": "Point",
        "coordinates": [
          -79.13204956054688,
          43.808101654052734
        ]
      },
      "properties": {
        "vehicle_id": "9101",
        "bearing": 0.0,
        "speed": 0.0,
        "trip_id": "1591__402005_Timetable_-_2026-04",
        "route_id": "900",
        "timestamp": 1781873643
      }
    },
    {
      "type": "Feature",
      "geometry": {
        "type": "Point",
        "coordinates": [
          -78.9090347290039,
          43.88741683959961
        ]
      },
      "properties": {
        "vehicle_id": "9102",
        "bearing": 0.0,
        "speed": 0.0,
        "trip_id": "442__402001_Timetable_-_2026-04",
        "route_id": "900",
        "timestamp": 1781873637
      }
    },
    {
      "type": "Feature",
      "geometry": {
        "type": "Point",
        "coordinates": [
          -79.0855484008789,
          43.832733154296875
        ]
      },
      "properties": {
        "vehicle_id": "9104",
        "bearing": 0.0,
        "speed": 0.0,
        "trip_id": "536__402003_Timetable_-_2026-04",
        "route_id": "900",
        "timestamp": 1781873626
      }
    },
    {
      "type": "Feature",
      "geometry": {
        "type": "Point",
        "coordinates": [
          -78.87103271484375,
          43.91450119018555
        ]
      },
      "properties": {
        "vehicle_id": "9105",
        "bearing": 0.0,
        "speed": 0.0,
        "trip_id": "5400__402004_Timetable_-_2026-04",
        "route_id": "901",
        "timestamp": 1781873615
      }
    },
    {
      "type": "Feature",
      "geometry": {
        "type": "Point",
        "coordinates": [
          -79.04859924316406,
          43.85601806640625
        ]
      },
      "properties": {
        "vehicle_id": "9106",
        "bearing": 0.0,
        "speed": 0.0,
        "trip_id": "535__402008_Timetable_-_2026-04",
        "route_id": "900",
        "timestamp": 1781873631
      }
    },
    {
      "type": "Feature",
      "geometry": {
        "type": "Point",
        "coordinates": [
          -79.17489624023438,
          43.78973388671875
        ]
      },
      "properties": {
        "vehicle_id": "9107",
        "bearing": 0.0,
        "speed": 0.0,
        "trip_id": "506__402007_Timetable_-_2026-04",
        "route_id": "900",
        "timestamp": 1781873640
      }
    }
  ]
}